{"type": "FeatureCollection", "properties": {"is_demo": false, "source": "OpenStreetMap (Overpass)", "osm_relation_id": 10311689, "name": "Kovilpatti", "admin_level": "6"}, "features": [{"type": "Feature", "properties": {"name": "Kovilpatti", "is_demo": false, "admin_level": "6", "wikidata": "Q12980555"}, "geometry": {"type": "MultiPolygon", "coordinates": [[[[77.9758853, 9.0228894], [77.9749381, 9.0243833], [77.9732537, 9.026672], [77.9723525, 9.0277846], [77.9718161, 9.0286428], [77.9713976, 9.0297554], [77.9709256, 9.0316203], [77.9691338, 9.0318746], [77.9668593, 9.0324467], [77.9662049, 9.0330401], [77.9658186, 9.0338454], [77.965883, 9.0351487], [77.9658615, 9.03784], [77.9656684, 9.0416968], [77.9668271, 9.0426821], [77.9669666, 9.044886], [77.9671276, 9.0482659], [77.9673528, 9.0500565], [77.9681682, 9.0519637], [77.9685545, 9.0532139], [77.9677391, 9.0540615], [77.9658079, 9.0541463], [77.963469, 9.0538708], [77.9622674, 9.0533199], [77.960701, 9.0526206], [77.9593277, 9.052112], [77.9554868, 9.0518577], [77.9536199, 9.0537013], [77.9527402, 9.0549939], [77.9520321, 9.0568163], [77.952311, 9.0587022], [77.9531908, 9.0629614], [77.9546284, 9.0645718], [77.9559159, 9.0648472], [77.9567528, 9.065271], [77.9574823, 9.0666484], [77.9570746, 9.0680469], [77.9564738, 9.069064], [77.9561519, 9.0703141], [77.9526758, 9.0733654], [77.9516029, 9.0761835], [77.9501009, 9.0778998], [77.9492211, 9.0794043], [77.9483628, 9.0823495], [77.9459595, 9.0831335], [77.9459595, 9.0855066], [77.9449296, 9.0860787], [77.9427624, 9.0878585], [77.9390287, 9.087583], [77.937119, 9.0872017], [77.9353165, 9.0868838], [77.9336214, 9.0860363], [77.9322481, 9.0850192], [77.9306388, 9.0842776], [77.9291582, 9.0841293], [77.9281711, 9.0841293], [77.927227, 9.0841929], [77.9264545, 9.0853583], [77.9253387, 9.0878161], [77.9258323, 9.0889603], [77.9272914, 9.0891298], [77.9282355, 9.08949], [77.9288149, 9.0909308], [77.9288578, 9.092414], [77.9286217, 9.0935369], [77.9279566, 9.0947023], [77.9274416, 9.0957193], [77.9285359, 9.0969694], [77.9279566, 9.1001687], [77.9260897, 9.1008043], [77.9259181, 9.102012], [77.9270124, 9.1026688], [77.927227, 9.1034104], [77.9263687, 9.1050418], [77.9249525, 9.1063978], [77.9229569, 9.1074783], [77.9215836, 9.1094699], [77.9202533, 9.1106352], [77.9183221, 9.1111225], [77.9168844, 9.1113768], [77.9157257, 9.1119488], [77.9147172, 9.1134954], [77.9137087, 9.1148938], [77.9133653, 9.1161438], [77.9148459, 9.1174997], [77.9165411, 9.1215251], [77.9171634, 9.1220336], [77.9197168, 9.1224997], [77.9209614, 9.1232624], [77.9226351, 9.1247031], [77.9228711, 9.1256988], [77.9222059, 9.1267158], [77.9219055, 9.1273302], [77.9233432, 9.1283471], [77.9215622, 9.1303597], [77.9201245, 9.1331563], [77.9201245, 9.1407194], [77.9215836, 9.1424778], [77.9215193, 9.1438972], [77.9197597, 9.1447022], [77.9171634, 9.1447446], [77.9133653, 9.1446599], [77.9123783, 9.1447446], [77.9109621, 9.146969], [77.9106831, 9.1487697], [77.9118204, 9.1502315], [77.9121423, 9.151439], [77.9121423, 9.1523499], [77.9117131, 9.1538752], [77.911005, 9.1552946], [77.9108977, 9.1571376], [77.9109621, 9.1615015], [77.9108119, 9.167327], [77.9105329, 9.1802064], [77.9118204, 9.1783212], [77.9127645, 9.1766901], [77.9138803, 9.1761605], [77.9156184, 9.17633], [77.9160905, 9.1767536], [77.917335, 9.1783212], [77.9186225, 9.1791897], [77.9208112, 9.1801005], [77.9222917, 9.1803547], [77.9231071, 9.1783], [77.9232573, 9.1762664], [77.92315, 9.1748471], [77.9237294, 9.173555], [77.92521, 9.1726864], [77.9270768, 9.1715426], [77.9278064, 9.1696572], [77.9294586, 9.1697208], [77.9303598, 9.1710553], [77.9316258, 9.1717544], [77.933321, 9.171945], [77.9346299, 9.1709282], [77.9350161, 9.1692547], [77.9347586, 9.1674965], [77.9349303, 9.165018], [77.9356599, 9.163514], [77.9366255, 9.1646367], [77.9367542, 9.1661196], [77.9377627, 9.1678566], [77.9391575, 9.1690005], [77.9408526, 9.1692759], [77.9420972, 9.1693183], [77.9433203, 9.1700385], [77.9446077, 9.1711613], [77.9483843, 9.1748048], [77.9516458, 9.1770925], [77.9530835, 9.1787024], [77.9533839, 9.1804394], [77.9530191, 9.1814139], [77.9523325, 9.1824942], [77.9511308, 9.1837651], [77.9501653, 9.1861164], [77.9488134, 9.1872814], [77.9474616, 9.1890607], [77.9474187, 9.1910731], [77.9458308, 9.1917509], [77.9423117, 9.1909671], [77.9375696, 9.1892726], [77.9350161, 9.1884888], [77.9310679, 9.1875356], [77.9296517, 9.1872602], [77.9286861, 9.1878745], [77.9280638, 9.1887006], [77.927978, 9.189908], [77.9279136, 9.1908612], [77.9271626, 9.1913061], [77.9240727, 9.1931489], [77.922163, 9.1944834], [77.9215622, 9.1957755], [77.9209399, 9.2023206], [77.9201549, 9.2033241]]], [[[77.9201549, 9.2033241], [77.9169148, 9.2009044], [77.9148548, 9.2004384], [77.912709, 9.2000995], [77.9107779, 9.2003961], [77.9093187, 9.2011586], [77.8995769, 9.2032344], [77.8889768, 9.2042935], [77.8844278, 9.205988], [77.8776472, 9.2081062], [77.8779905, 9.2113257], [77.8779905, 9.2147993], [77.8783338, 9.2195438], [77.8783338, 9.2205605], [77.8757589, 9.2222549], [77.8749006, 9.2265756], [77.8776472, 9.22827], [77.8810804, 9.2286936], [77.8836553, 9.2288631], [77.8864019, 9.2304728], [77.8864019, 9.2338615], [77.8815095, 9.2335226], [77.8808229, 9.2359795], [77.8801363, 9.241952], [77.8800934, 9.2444935], [77.8736132, 9.2450441], [77.8701799, 9.2451288], [77.8670042, 9.2452136], [77.8655022, 9.2452136], [77.8642147, 9.2454677], [77.8621118, 9.2469502], [77.8603523, 9.2481786], [77.8578203, 9.2480515], [77.8557604, 9.2472891], [77.8541296, 9.2451288], [77.8486793, 9.2444935], [77.8472711, 9.2443914]]], [[[77.8472711, 9.2443914], [77.8501509, 9.2373321], [77.8515887, 9.2344091], [77.8521251, 9.2319947], [77.8525972, 9.2275257], [77.8530478, 9.2254077], [77.8528976, 9.224497], [77.851932, 9.2241369], [77.8509021, 9.2237768], [77.8505158, 9.2231202], [77.8507089, 9.2211505], [77.8512239, 9.2191595], [77.8519106, 9.217931], [77.8526187, 9.2170838], [77.8537774, 9.2162366], [77.8553009, 9.2157706], [77.8566742, 9.2151352], [77.8580689, 9.2142456], [77.8590989, 9.2127629], [77.8594422, 9.2097764], [77.8595924, 9.2045447], [77.8602147, 9.2028713], [77.860043, 9.2016852], [77.8594637, 9.200266], [77.8589916, 9.1983808], [77.8585195, 9.1971311], [77.8577256, 9.1960932], [77.8561806, 9.1956907], [77.8549361, 9.1953942], [77.8529405, 9.1951612], [77.8522968, 9.1941445], [77.8525972, 9.1921957], [77.8522539, 9.1882346], [77.8521037, 9.1864129], [77.851181, 9.1859046], [77.8505373, 9.1861588], [77.8501081, 9.1867731], [77.8496146, 9.1873238], [77.8479194, 9.1873662], [77.8470826, 9.18654], [77.8462672, 9.1860105], [77.8455806, 9.1857563], [77.8443789, 9.1855656], [77.842555, 9.1855445], [77.8411333, 9.1852561], [77.8409886, 9.1852267], [77.8404736, 9.183977], [77.8404307, 9.1832356], [77.8401732, 9.1767324], [77.8398728, 9.1705257], [77.8396797, 9.1688523], [77.8387785, 9.1678354], [77.8366756, 9.1675389], [77.8350663, 9.1674753], [77.8341007, 9.1676448], [77.8324699, 9.1685981], [77.8309035, 9.1692336], [77.8281355, 9.1700809], [77.8264832, 9.1706952], [77.823565, 9.1709918], [77.8217196, 9.1707799], [77.8200245, 9.1706528], [77.8181362, 9.1707164], [77.8166985, 9.171013], [77.8155827, 9.1716908], [77.812407, 9.173216], [77.8102827, 9.1741481], [77.8092956, 9.1751861], [77.8081369, 9.1758851], [77.8070426, 9.1762029], [77.8062486, 9.1771561], [77.8055835, 9.1786177], [77.8048539, 9.1793591], [77.8036093, 9.1798251], [77.8020215, 9.1795286], [77.8007984, 9.1791049], [77.7995968, 9.178533], [77.7989745, 9.1778128], [77.7983951, 9.1757368], [77.7983522, 9.174021], [77.7981162, 9.1728347], [77.7977943, 9.1714578], [77.7971506, 9.1702715], [77.7955413, 9.1696996], [77.7941465, 9.1693818], [77.7923012, 9.1685557], [77.7900696, 9.1677931], [77.7844691, 9.1648062], [77.7795124, 9.1636411], [77.7761221, 9.1632598], [77.7697921, 9.1626454], [77.763741, 9.1627302], [77.7576041, 9.1628149], [77.7489137, 9.1624971], [77.7445364, 9.1630056], [77.7443003, 9.1651663], [77.7443862, 9.1667127], [77.7440858, 9.1684286], [77.7441716, 9.1706952], [77.7422619, 9.1719874], [77.7411675, 9.1720086], [77.7394295, 9.1720298], [77.7386999, 9.1726017], [77.738378, 9.1741905], [77.7379703, 9.1759487], [77.7375197, 9.1778763], [77.7371764, 9.1810749], [77.7370047, 9.18421], [77.7369189, 9.18654], [77.7354383, 9.1871967], [77.7320266, 9.1871543], [77.7292585, 9.1869425], [77.7278423, 9.1867519], [77.726233, 9.186646], [77.7252459, 9.1868154], [77.7244305, 9.1880652], [77.7237224, 9.188976], [77.7212333, 9.1896327], [77.7177143, 9.189675], [77.7154612, 9.1895056], [77.7117276, 9.1892938], [77.709732, 9.1888066], [77.7078867, 9.1884888], [77.7068567, 9.1878322]]], [[[77.7068567, 9.1878322], [77.7060842, 9.1867731], [77.7056336, 9.1856292], [77.7052045, 9.184443], [77.7053332, 9.1798463], [77.7057409, 9.1781305], [77.7064705, 9.176796], [77.7065992, 9.1751225], [77.706685, 9.1735338], [77.7067494, 9.1702504], [77.7057409, 9.1687887], [77.7046251, 9.1680261], [77.7040458, 9.1667551], [77.7039814, 9.1661408], [77.7030802, 9.1657171], [77.7018142, 9.1652087], [77.6988745, 9.1633445], [77.6961279, 9.1628573], [77.6943898, 9.1615227], [77.6935529, 9.1603999], [77.6911711, 9.1589171], [77.6898837, 9.1580909], [77.6898193, 9.156841], [77.6898622, 9.1555276], [77.6896906, 9.154426], [77.6911711, 9.1502738], [77.6918793, 9.1487485], [77.6926088, 9.1467572], [77.6931238, 9.1454013], [77.6936921, 9.1445597], [77.6938963, 9.1442574], [77.6949262, 9.1427744], [77.6958275, 9.1419058], [77.6975655, 9.1417363], [77.6987672, 9.1414609], [77.699604, 9.1409737], [77.7004194, 9.1399356], [77.7003765, 9.138728], [77.6996898, 9.1378594], [77.6985097, 9.1373086], [77.6968145, 9.1361434], [77.6962137, 9.1351053], [77.6954841, 9.134152], [77.6945185, 9.1338342], [77.6929307, 9.1334952], [77.6915359, 9.1331986], [77.6896691, 9.133008], [77.6881671, 9.1331774], [77.6857209, 9.1338766], [77.6843905, 9.1343003], [77.6826095, 9.1352536], [77.6825881, 9.1378171], [77.6799488, 9.1380713], [77.6779747, 9.1380925], [77.6756143, 9.1379654], [77.6740479, 9.1377111], [77.6739621, 9.1366307], [77.6739621, 9.1346181], [77.6743698, 9.1300208], [77.6741981, 9.1282835], [77.6742196, 9.1273302], [77.6749062, 9.1256988], [77.6755929, 9.1245124], [77.6765156, 9.1211438], [77.6766443, 9.1197879], [77.676773, 9.1181141], [77.6762795, 9.1121183], [77.6763654, 9.1103598], [77.676773, 9.1093852], [77.6787472, 9.1081351], [77.6799702, 9.1071182], [77.6814294, 9.1058045], [77.6846051, 9.1037918], [77.6863861, 9.1030502], [77.6879954, 9.1025629], [77.6908064, 9.1020756], [77.6935744, 9.1016518], [77.6953554, 9.1016942], [77.6981878, 9.1021391], [77.7009558, 9.1024569], [77.7034664, 9.1024781], [77.705698, 9.1027536], [77.7076292, 9.1036223], [77.7097749, 9.1041943], [77.7111053, 9.1042367], [77.713573, 9.1040672], [77.7166199, 9.1041519], [77.7190876, 9.1048299], [77.7198171, 9.1054444], [77.7207398, 9.1066944], [77.7216196, 9.1074995], [77.7226066, 9.1077114], [77.7236366, 9.1069063], [77.7242374, 9.1061435], [77.725482, 9.1053384], [77.7268123, 9.1048299], [77.7285719, 9.1046816], [77.73664, 9.1052113], [77.7396655, 9.1057622], [77.7409744, 9.1051477], [77.7414894, 9.1036011], [77.7417254, 9.1019484], [77.74194, 9.1001475], [77.7414894, 9.0984525], [77.7412104, 9.0958676], [77.7414894, 9.0928377], [77.7420902, 9.0908037], [77.7425194, 9.0877526], [77.742176, 9.0842353], [77.7439356, 9.0825826], [77.7445364, 9.0809722], [77.7446222, 9.0797433], [77.7440858, 9.078366], [77.7433777, 9.0773066], [77.7426696, 9.0766497], [77.740438, 9.0753995], [77.7392363, 9.0748062], [77.7344942, 9.0721576], [77.7315974, 9.0715643], [77.7292156, 9.0712041], [77.7277565, 9.0712888], [77.7240872, 9.0717338], [77.7214265, 9.0724543], [77.719109, 9.0730052], [77.7168989, 9.072984], [77.7147102, 9.0729628], [77.711277, 9.0729628], [77.7094745, 9.0730052], [77.7085948, 9.0734713], [77.7073288, 9.0748698], [77.7059769, 9.0745732], [77.7047109, 9.0736408], [77.7041101, 9.0726238], [77.7035951, 9.0712888], [77.7034879, 9.0701658], [77.7038741, 9.0668603], [77.704196, 9.0653558], [77.7037239, 9.0641056], [77.7030158, 9.0633004], [77.7023077, 9.0625164], [77.7024364, 9.0617323], [77.7037668, 9.0605457], [77.7051616, 9.059465], [77.7063846, 9.0583843], [77.710526, 9.052557], [77.7120924, 9.0505439], [77.7128219, 9.0488699], [77.7131867, 9.0474077], [77.7129721, 9.0459032], [77.7119636, 9.0444198], [77.7099681, 9.0425762], [77.7086592, 9.0416226], [77.707479, 9.0411352], [77.7059769, 9.0410504], [77.7046037, 9.0409445], [77.7032733, 9.040775], [77.7027797, 9.0396942], [77.7026295, 9.0386346], [77.7026725, 9.0375115], [77.7027368, 9.036346], [77.7025223, 9.0355831], [77.7017927, 9.0351805], [77.70087, 9.034905], [77.6966858, 9.0340997], [77.6953983, 9.0330189], [77.6942396, 9.0315991], [77.6943254, 9.0300945], [77.6952052, 9.028823], [77.6957416, 9.0272972], [77.6962137, 9.0236309], [77.6963424, 9.0214058], [77.6961708, 9.0199223], [77.6953554, 9.0183117], [77.6941967, 9.0174004], [77.6928448, 9.0162136], [77.6902914, 9.0148785], [77.6888966, 9.0140096], [77.6884246, 9.012844], [77.6878452, 9.0110638], [77.6875877, 9.0097499], [77.6877379, 9.0081392], [77.688446, 9.0054689], [77.6888108, 9.0040065], [77.6889181, 9.0029892], [77.6888537, 9.0018872], [77.6890683, 9.001103], [77.6910639, 9.0006368], [77.6933813, 9.000552], [77.6953769, 9.0007004], [77.6973939, 9.0008063], [77.6997542, 9.0010818], [77.7011061, 9.001103], [77.7045607, 9.0024594], [77.7065134, 9.0025866], [77.7165985, 9.002523], [77.722156, 9.0023534], [77.7240228, 9.0006156], [77.7256536, 8.9984962], [77.7268123, 8.9969915], [77.7267909, 8.9948721], [77.7268553, 8.9928163], [77.7272844, 8.9913751], [77.7282285, 8.9903578], [77.7291941, 8.9897856], [77.730031, 8.9889802], [77.7301383, 8.9875178], [77.7301383, 8.9862673], [77.7292371, 8.9833849], [77.7285719, 8.9824311], [77.7270698, 8.982092], [77.7255249, 8.9818801], [77.7247524, 8.9810747], [77.7244305, 8.9798666], [77.7239585, 8.9791672], [77.7226281, 8.9787009], [77.7220273, 8.9781498], [77.7210831, 8.9723636], [77.72089, 8.9709859], [77.7208257, 8.9695446], [77.7207613, 8.9685485], [77.7199244, 8.9664077], [77.7165127, 8.9663865], [77.7134871, 8.9665561], [77.7102256, 8.9668528], [77.705419, 8.9677218], [77.7042603, 8.968061], [77.7035093, 8.9694387], [77.7028656, 8.9708588], [77.7020716, 8.9726603], [77.7005696, 8.9738049], [77.6995396, 8.9753309], [77.6985097, 8.9768357], [77.6975441, 8.9782134], [77.69557, 8.9805448], [77.6946687, 8.9820496], [77.6940679, 8.9839148], [77.6938319, 8.9852288], [77.6931882, 8.9879629], [77.6928019, 8.9901883], [77.692244, 8.991799], [77.6910853, 8.9933674], [77.6903343, 8.9941515], [77.6881027, 8.9947873], [77.6868152, 8.9948297], [77.6858496, 8.9944482], [77.6846051, 8.9938124], [77.683661, 8.9931978], [77.6814937, 8.9916506], [77.6785111, 8.9899551], [77.6773309, 8.9891074], [77.6766443, 8.9876662], [77.6763439, 8.9861826], [77.6764941, 8.9831094], [77.6766228, 8.9801421], [77.6773739, 8.9779167], [77.6778245, 8.9758184], [77.6778888, 8.974038], [77.6783609, 8.9727875], [77.6793909, 8.9718125], [77.6804423, 8.9709435], [77.6805281, 8.9687604], [77.6806998, 8.966323], [77.681365, 8.9649664], [77.6824808, 8.9638431], [77.6835537, 8.9626137], [77.6842832, 8.9613632], [77.6853347, 8.9601762], [77.6881456, 8.9591588], [77.6898408, 8.9577387], [77.6908278, 8.9564245], [77.691257, 8.9545593], [77.6905917, 8.944597], [77.6915359, 8.9361606], [77.6923513, 8.9330234], [77.6937675, 8.9299285], [77.6953125, 8.9279784], [77.6962648, 8.9277007]]], [[[77.6962648, 8.9277007], [77.6979303, 8.9272152], [77.7013635, 8.9268761], [77.7049684, 8.9260282], [77.7094745, 8.925477], [77.7129507, 8.9254346], [77.7226066, 8.9249683], [77.7283144, 8.9251803], [77.7312755, 8.9251803], [77.7347087, 8.9247139], [77.7369403, 8.9245867], [77.7370691, 8.9292502], [77.7369403, 8.9314548], [77.737627, 8.9321755], [77.7423906, 8.9324722], [77.7449226, 8.9324298], [77.746725, 8.9312428], [77.7470254, 8.9298014], [77.750287, 8.9292502], [77.7564668, 8.9283175], [77.759428, 8.9273848], [77.7608871, 8.9267913], [77.761445, 8.9255618], [77.7613592, 8.9235692], [77.7614021, 8.9218734], [77.7613592, 8.9203047], [77.7640628, 8.919372], [77.7642345, 8.9173794], [77.7640628, 8.9153019], [77.7643632, 8.9093663], [77.7637195, 8.9049569], [77.7635049, 8.9012683], [77.7630329, 8.8989788], [77.7619171, 8.8952477], [77.76093, 8.8923221], [77.7612733, 8.8897781], [77.7623033, 8.8881669], [77.7655649, 8.8857501], [77.7676248, 8.8839693], [77.7692985, 8.8830365], [77.7727317, 8.8829517], [77.7763366, 8.8829517], [77.7795553, 8.8831213], [77.7837181, 8.8828245], [77.7861642, 8.8826973], [77.7883848, 8.8824002]]], [[[77.9758853, 9.0228894], [77.9741528, 9.0217199], [77.9723326, 9.0226079], [77.9702931, 9.0226079], [77.969043, 9.0220881], [77.9679904, 9.0211134], [77.9671132, 9.0202254], [77.9660386, 9.0199222], [77.9641087, 9.0195973], [77.9614332, 9.0185576], [77.9603148, 9.018406], [77.959306, 9.0157636], [77.9586262, 9.0147023], [77.9571788, 9.0144424], [77.9559068, 9.0139225], [77.9558191, 9.0125797], [77.9553366, 9.0116483], [77.9538892, 9.0110202], [77.9530339, 9.0106086], [77.950819, 9.010522], [77.9489768, 9.0105003], [77.9480119, 9.0105653], [77.9466961, 9.0102621], [77.9449197, 9.009569], [77.9409723, 9.0092874], [77.9388889, 9.0088109], [77.9380994, 9.0073813], [77.9374853, 9.0065799], [77.9360599, 9.0063633], [77.9346344, 9.0066449], [77.9335817, 9.0070997], [77.9324852, 9.0076412], [77.9308843, 9.007468], [77.930972, 9.0051937], [77.9291299, 9.0034609], [77.9273316, 9.0012082], [77.9276606, 8.9978075], [77.9266298, 8.9963779], [77.9259939, 8.9957065], [77.9264325, 8.9948184], [77.9270904, 8.9939086], [77.9270465, 8.992674], [77.925643, 8.991526], [77.9268053, 8.9903129], [77.9269807, 8.9888833], [77.9252921, 8.98884], [77.9243052, 8.988905], [77.922814, 8.987497], [77.9154673, 8.9874104], [77.9100725, 8.9876486], [77.9081645, 8.98884], [77.9064101, 8.98884], [77.9016951, 8.9890133], [77.901081, 8.9886234], [77.9006424, 8.9848544], [77.9007082, 8.9826016], [77.90016, 8.9810636], [77.8996556, 8.9795257], [77.8996775, 8.9746518], [77.9016074, 8.9735687], [77.9025723, 8.9728105], [77.9021118, 8.9716841], [77.9008179, 8.9712509], [77.8997872, 8.9714892], [77.8986906, 8.9724206], [77.8964976, 8.9728539], [77.8937344, 8.9729405], [77.8920019, 8.9730055], [77.8895457, 8.9730055], [77.8870676, 8.9747601], [77.8761901, 8.9739586], [77.8731199, 8.9725506], [77.8641943, 8.9725506], [77.8566064, 8.9725939], [77.8512115, 8.9726372], [77.8510142, 8.9709693], [77.8498519, 8.9701678], [77.8479439, 8.9701028], [77.8462991, 8.9700161], [77.8449614, 8.9697995], [77.8420447, 8.9663336], [77.8347638, 8.9668318], [77.8331848, 8.9660736], [77.8323515, 8.9642323], [77.831869, 8.9623043], [77.8310576, 8.960658], [77.8300488, 8.9577768], [77.8298514, 8.9556322], [77.8301365, 8.9538775], [77.8311234, 8.9525344], [77.8323734, 8.9515379], [77.832812, 8.9500865], [77.832812, 8.9491766], [77.8346322, 8.9481368], [77.8356849, 8.9475952], [77.83722, 8.9468153], [77.8365621, 8.9443673], [77.8357507, 8.9431758], [77.8359042, 8.9421793], [77.8364086, 8.9410094], [77.8364086, 8.9398179], [77.8360796, 8.9385831], [77.8356849, 8.9375432], [77.8350708, 8.933427], [77.8363209, 8.9324521], [77.8371981, 8.9317589], [77.8370446, 8.930654], [77.8366937, 8.9297441], [77.8335138, 8.9295058], [77.8316936, 8.9295707], [77.8291716, 8.9298091], [77.8268689, 8.9296791], [77.8262548, 8.9287042], [77.8263426, 8.9276426], [77.8270663, 8.9267327], [77.8273294, 8.9252595], [77.8267373, 8.9244146], [77.8257285, 8.9239163], [77.8252899, 8.9243496], [77.8246101, 8.9252812], [77.8229434, 8.9252378], [77.8223074, 8.9247179], [77.8219126, 8.9240679], [77.8215618, 8.9182834], [77.8201802, 8.9165285], [77.8199609, 8.9155535], [77.8196977, 8.9141886], [77.8189082, 8.9131704], [77.8194345, 8.9120871], [77.8204433, 8.9107871], [77.8200924, 8.9081656], [77.8184477, 8.9063023], [77.817088, 8.9051107], [77.8158818, 8.905544], [77.8146099, 8.906259], [77.8136011, 8.9053707], [77.812351, 8.9049807], [77.8110791, 8.904959], [77.8097194, 8.904764], [77.8085571, 8.9042224], [77.8075264, 8.9039624], [77.8059474, 8.904764], [77.8025482, 8.9035724], [77.800728, 8.905414], [77.7990832, 8.9042224], [77.7970437, 8.9036591], [77.7952015, 8.9038974], [77.793469, 8.9035074], [77.7920874, 8.9022291], [77.7912102, 8.8980909], [77.7894339, 8.8954909], [77.7883812, 8.8938009], [77.7874163, 8.8911142], [77.7880523, 8.8888825], [77.789083, 8.8876475], [77.7891488, 8.8865642], [77.7883848, 8.8824002]]]]}}]}