{"type": "FeatureCollection", "features": [{"type": "Feature", "geometry": {"type": "Polygon", "coordinates": [[[77.875429, 9.1830109], [77.8748818, 9.1826347], [77.8762292, 9.17934], [77.8764679, 9.1794476], [77.8771913, 9.1784489], [77.8778569, 9.1789254], [77.878093, 9.178549], [77.8789379, 9.1791084], [77.8789889, 9.1792076], [77.8789411, 9.1794638], [77.8789938, 9.1795799], [77.8791186, 9.1796934], [77.8796355, 9.1800967], [77.8790975, 9.1807519], [77.8788561, 9.1810961], [77.8787124, 9.181519], [77.878327, 9.1831107], [77.8780771, 9.1830109], [77.8779891, 9.1833196], [77.8758785, 9.1830205], [77.875429, 9.1830109]]]}, "properties": {"kind": "landuse", "name": "", "osm_id": 93420249, "tag": "industrial"}}, {"type": "Feature", "geometry": {"type": "Polygon", "coordinates": [[[77.8633595, 9.1606417], [77.8633595, 9.1582842], [77.8672035, 9.1571342], [77.8727948, 9.1616192], [77.8796091, 9.1611592], [77.8832201, 9.1661616], [77.8891026, 9.168864], [77.8932378, 9.170014], [77.8989456, 9.1744988], [77.9019742, 9.1756487], [77.9018577, 9.1780636], [77.8944609, 9.1786961], [77.8910828, 9.1781786], [77.8867147, 9.1782361], [77.8867147, 9.1816859], [77.8933543, 9.1827783], [77.8983049, 9.1835257], [77.9005181, 9.1847331], [77.9008676, 9.1876654], [77.8958587, 9.1893903], [77.8923642, 9.1904827], [77.8906751, 9.19238], [77.8867729, 9.192265], [77.8849674, 9.1908851], [77.8809487, 9.1910001], [77.8772212, 9.1910001], [77.8744255, 9.1900227], [77.8732607, 9.1874354], [77.8716299, 9.1862855], [77.8669705, 9.1856531], [77.8645826, 9.1868605], [77.863476, 9.1884128], [77.8602727, 9.1900802], [77.8598067, 9.1927249], [77.8578847, 9.1953697], [77.8517693, 9.1949097], [77.8504297, 9.1910576], [77.8491484, 9.1896777], [77.844722, 9.1910001], [77.8414021, 9.1905976], [77.8403538, 9.1883554], [77.8416351, 9.1843882], [77.8448384, 9.1816284], [77.8513616, 9.1822033], [77.8533418, 9.180306], [77.8561957, 9.1807084], [77.8557466, 9.1789169], [77.85492, 9.1776222], [77.8539825, 9.1758212], [77.8530786, 9.1738272], [77.8510657, 9.1726497], [77.8490156, 9.1710305], [77.8482328, 9.1682338], [77.8478228, 9.1667987], [77.8461081, 9.1637811], [77.8444307, 9.1616836], [77.8452135, 9.1604692], [77.8468909, 9.1602116], [77.8485683, 9.1616836], [77.8509539, 9.1629715], [77.8514012, 9.1614628], [77.8526685, 9.1596228], [77.8546068, 9.160506], [77.8557996, 9.1639283], [77.8576634, 9.1647379], [77.8582225, 9.1627876], [77.8589308, 9.1598068], [77.8599745, 9.1604692], [77.8616146, 9.1623828], [77.8628074, 9.161794], [77.8633595, 9.1606417]]]}, "properties": {"kind": "landuse", "name": "Kovilpatti", "osm_id": 93420678, "tag": "residential"}}, {"type": "Feature", "geometry": {"type": "Polygon", "coordinates": [[[77.8671628, 9.1688912], [77.8670715, 9.16871], [77.8669054, 9.1683807], [77.8668219, 9.1682149], [77.8678606, 9.1680436], [77.8682586, 9.1680003], [77.8686426, 9.1681767], [77.8685871, 9.1687135], [77.8685674, 9.1689039], [77.8675215, 9.1688964], [77.8671628, 9.1688912]]]}, "properties": {"kind": "landuse", "name": "A.T.G. Gardens", "osm_id": 473316697, "tag": "residential"}}, {"type": "Feature", "geometry": {"type": "Polygon", "coordinates": [[[77.862108, 9.1664645], [77.8619791, 9.1667], [77.8620449, 9.1667334], [77.8622416, 9.1668332], [77.8622645, 9.1668448], [77.8623788, 9.1666256], [77.862108, 9.1664645]]]}, "properties": {"kind": "landuse", "name": "Ganesh Bhavanam", "osm_id": 549837883, "tag": "residential"}}, {"type": "Feature", "geometry": {"type": "Polygon", "coordinates": [[[77.8619686, 9.1669152], [77.8620449, 9.1667334], [77.8622416, 9.1668332], [77.8622645, 9.1668448], [77.8621871, 9.1670003], [77.8621177, 9.1669739], [77.8619686, 9.1669152]]]}, "properties": {"kind": "landuse", "name": "", "osm_id": 824434273, "tag": "residential"}}, {"type": "Feature", "geometry": {"type": "Polygon", "coordinates": [[[77.8622645, 9.1668448], [77.8624111, 9.1669148], [77.8623695, 9.1670733], [77.8622349, 9.1670196], [77.8621871, 9.1670003], [77.8622645, 9.1668448]]]}, "properties": {"kind": "landuse", "name": "", "osm_id": 824434274, "tag": "residential"}}, {"type": "Feature", "geometry": {"type": "Polygon", "coordinates": [[[77.8622645, 9.1668448], [77.8624111, 9.1669148], [77.8624732, 9.1666785], [77.8623788, 9.1666256], [77.8622645, 9.1668448]]]}, "properties": {"kind": "landuse", "name": "", "osm_id": 824434275, "tag": "residential"}}, {"type": "Feature", "geometry": {"type": "Polygon", "coordinates": [[[77.8618239, 9.1672884], [77.8619755, 9.1673619], [77.8620405, 9.1671849], [77.8618881, 9.1671229], [77.8618239, 9.1672884]]]}, "properties": {"kind": "landuse", "name": "", "osm_id": 824434277, "tag": "residential"}}, {"type": "Feature", "geometry": {"type": "Polygon", "coordinates": [[[77.8619755, 9.1673619], [77.8620936, 9.1674174], [77.8621601, 9.1672303], [77.8620405, 9.1671849], [77.8619755, 9.1673619]]]}, "properties": {"kind": "landuse", "name": "", "osm_id": 824434278, "tag": "residential"}}, {"type": "Feature", "geometry": {"type": "Polygon", "coordinates": [[[77.8620936, 9.1674174], [77.8622516, 9.1674853], [77.8623073, 9.1672907], [77.8621601, 9.1672303], [77.8620936, 9.1674174]]]}, "properties": {"kind": "landuse", "name": "", "osm_id": 824434279, "tag": "residential"}}, {"type": "Feature", "geometry": {"type": "Polygon", "coordinates": [[[77.8620405, 9.1671849], [77.8621177, 9.1669739], [77.8619686, 9.1669152], [77.8618881, 9.1671229], [77.8620405, 9.1671849]]]}, "properties": {"kind": "landuse", "name": "", "osm_id": 824434280, "tag": "residential"}}, {"type": "Feature", "geometry": {"type": "Polygon", "coordinates": [[[77.8620405, 9.1671849], [77.8621601, 9.1672303], [77.8622349, 9.1670196], [77.8621871, 9.1670003], [77.8621177, 9.1669739], [77.8620405, 9.1671849]]]}, "properties": {"kind": "landuse", "name": "", "osm_id": 824434281, "tag": "residential"}}, {"type": "Feature", "geometry": {"type": "Polygon", "coordinates": [[[77.8622349, 9.1670196], [77.8623695, 9.1670733], [77.8623073, 9.1672907], [77.8621601, 9.1672303], [77.8622349, 9.1670196]]]}, "properties": {"kind": "landuse", "name": "", "osm_id": 824434282, "tag": "residential"}}, {"type": "Feature", "geometry": {"type": "Polygon", "coordinates": [[[77.8617479, 9.1672496], [77.861689, 9.1673776], [77.8619275, 9.1674867], [77.8619755, 9.1673619], [77.8618239, 9.1672884], [77.8617479, 9.1672496]]]}, "properties": {"kind": "landuse", "name": "", "osm_id": 824434283, "tag": "residential"}}, {"type": "Feature", "geometry": {"type": "Polygon", "coordinates": [[[77.8616322, 9.1671875], [77.8616022, 9.1672541], [77.8615697, 9.167325], [77.861689, 9.1673776], [77.8617479, 9.1672496], [77.8616322, 9.1671875]]]}, "properties": {"kind": "landuse", "name": "", "osm_id": 824434284, "tag": "residential"}}, {"type": "Feature", "geometry": {"type": "Polygon", "coordinates": [[[77.8612846, 9.167012], [77.8612104, 9.1671587], [77.8609903, 9.1670569], [77.8610795, 9.1669084], [77.8612846, 9.167012]]]}, "properties": {"kind": "landuse", "name": "", "osm_id": 824434286, "tag": "residential"}}, {"type": "Feature", "geometry": {"type": "Polygon", "coordinates": [[[77.8612104, 9.1671587], [77.8613742, 9.1672345], [77.8614451, 9.1670931], [77.8612846, 9.167012], [77.8612104, 9.1671587]]]}, "properties": {"kind": "landuse", "name": "", "osm_id": 824434287, "tag": "residential"}}, {"type": "Feature", "geometry": {"type": "Polygon", "coordinates": [[[77.8613742, 9.1672345], [77.861462, 9.1672752], [77.8614959, 9.1672043], [77.8615288, 9.1671353], [77.8614451, 9.1670931], [77.8613742, 9.1672345]]]}, "properties": {"kind": "landuse", "name": "", "osm_id": 824434288, "tag": "residential"}}, {"type": "Feature", "geometry": {"type": "Polygon", "coordinates": [[[77.861462, 9.1672752], [77.8615697, 9.167325], [77.8616022, 9.1672541], [77.8614959, 9.1672043], [77.861462, 9.1672752]]]}, "properties": {"kind": "landuse", "name": "", "osm_id": 824434289, "tag": "residential"}}, {"type": "Feature", "geometry": {"type": "Polygon", "coordinates": [[[77.8614959, 9.1672043], [77.8616022, 9.1672541], [77.8616322, 9.1671875], [77.8615288, 9.1671353], [77.8614959, 9.1672043]]]}, "properties": {"kind": "landuse", "name": "", "osm_id": 824434290, "tag": "residential"}}, {"type": "Feature", "geometry": {"type": "Polygon", "coordinates": [[[77.8616926, 9.1681504], [77.8618449, 9.1682153], [77.861869, 9.1682256], [77.8619552, 9.1680164], [77.8617761, 9.1679376], [77.8617099, 9.1681057], [77.8616926, 9.1681504]]]}, "properties": {"kind": "landuse", "name": "", "osm_id": 824438479, "tag": "residential"}}, {"type": "Feature", "geometry": {"type": "Polygon", "coordinates": [[[77.861869, 9.1682256], [77.8618961, 9.1682371], [77.8619375, 9.1682548], [77.8619667, 9.1682672], [77.8620571, 9.1680613], [77.8619552, 9.1680164], [77.861869, 9.1682256]]]}, "properties": {"kind": "landuse", "name": "", "osm_id": 824438480, "tag": "residential"}}, {"type": "Feature", "geometry": {"type": "Polygon", "coordinates": [[[77.8620571, 9.1680613], [77.8619667, 9.1682672], [77.8620471, 9.1683015], [77.862069, 9.1683108], [77.8621586, 9.168106], [77.8620571, 9.1680613]]]}, "properties": {"kind": "landuse", "name": "", "osm_id": 824438481, "tag": "residential"}}, {"type": "Feature", "geometry": {"type": "Polygon", "coordinates": [[[77.862069, 9.1683108], [77.8621387, 9.1683405], [77.8621713, 9.1683544], [77.8622619, 9.1681515], [77.8621586, 9.168106], [77.862069, 9.1683108]]]}, "properties": {"kind": "landuse", "name": "", "osm_id": 824438482, "tag": "residential"}}, {"type": "Feature", "geometry": {"type": "Polygon", "coordinates": [[[77.8621713, 9.1683544], [77.8622406, 9.168384], [77.8622839, 9.1684024], [77.8623795, 9.1682032], [77.8622619, 9.1681515], [77.8621713, 9.1683544]]]}, "properties": {"kind": "landuse", "name": "", "osm_id": 824438483, "tag": "residential"}}, {"type": "Feature", "geometry": {"type": "Polygon", "coordinates": [[[77.8622839, 9.1684024], [77.862353, 9.1684318], [77.8623946, 9.1684496], [77.8624869, 9.1682505], [77.8623795, 9.1682032], [77.8622839, 9.1684024]]]}, "properties": {"kind": "landuse", "name": "", "osm_id": 824438484, "tag": "residential"}}, {"type": "Feature", "geometry": {"type": "Polygon", "coordinates": [[[77.8623946, 9.1684496], [77.8624473, 9.1684721], [77.8624951, 9.1684924], [77.862585, 9.1682937], [77.8624869, 9.1682505], [77.8623946, 9.1684496]]]}, "properties": {"kind": "landuse", "name": "", "osm_id": 824438485, "tag": "residential"}}, {"type": "Feature", "geometry": {"type": "Polygon", "coordinates": [[[77.8624951, 9.1684924], [77.8625578, 9.1685191], [77.8626096, 9.1685412], [77.8626949, 9.1683421], [77.862585, 9.1682937], [77.8624951, 9.1684924]]]}, "properties": {"kind": "landuse", "name": "", "osm_id": 824438486, "tag": "residential"}}, {"type": "Feature", "geometry": {"type": "Polygon", "coordinates": [[[77.8626096, 9.1685412], [77.8628223, 9.1686319], [77.8628287, 9.1685872], [77.8628398, 9.1685091], [77.8628526, 9.1684115], [77.8626949, 9.1683421], [77.8626096, 9.1685412]]]}, "properties": {"kind": "landuse", "name": "", "osm_id": 824438487, "tag": "residential"}}, {"type": "Feature", "geometry": {"type": "Polygon", "coordinates": [[[77.8616329, 9.168304], [77.861783, 9.16837], [77.8618449, 9.1682153], [77.8616926, 9.1681504], [77.8616329, 9.168304]]]}, "properties": {"kind": "landuse", "name": "", "osm_id": 824438488, "tag": "residential"}}, {"type": "Feature", "geometry": {"type": "Polygon", "coordinates": [[[77.861783, 9.16837], [77.8618707, 9.1684086], [77.8619375, 9.1682548], [77.861869, 9.1682256], [77.8618449, 9.1682153], [77.861783, 9.16837]]]}, "properties": {"kind": "landuse", "name": "", "osm_id": 824438489, "tag": "residential"}}, {"type": "Feature", "geometry": {"type": "Polygon", "coordinates": [[[77.8618707, 9.1684086], [77.8619782, 9.1684559], [77.8620471, 9.1683015], [77.8619667, 9.1682672], [77.8619375, 9.1682548], [77.8618707, 9.1684086]]]}, "properties": {"kind": "landuse", "name": "", "osm_id": 824438490, "tag": "residential"}}, {"type": "Feature", "geometry": {"type": "Polygon", "coordinates": [[[77.8619782, 9.1684559], [77.8620671, 9.168495], [77.8621387, 9.1683405], [77.862069, 9.1683108], [77.8620471, 9.1683015], [77.8619782, 9.1684559]]]}, "properties": {"kind": "landuse", "name": "", "osm_id": 824438491, "tag": "residential"}}, {"type": "Feature", "geometry": {"type": "Polygon", "coordinates": [[[77.8620671, 9.168495], [77.8621645, 9.1685378], [77.8622406, 9.168384], [77.8621713, 9.1683544], [77.8621387, 9.1683405], [77.8620671, 9.168495]]]}, "properties": {"kind": "landuse", "name": "", "osm_id": 824438492, "tag": "residential"}}, {"type": "Feature", "geometry": {"type": "Polygon", "coordinates": [[[77.8621645, 9.1685378], [77.8622406, 9.168384], [77.8622839, 9.1684024], [77.862353, 9.1684318], [77.8622763, 9.168587], [77.8621645, 9.1685378]]]}, "properties": {"kind": "landuse", "name": "", "osm_id": 824438493, "tag": "residential"}}, {"type": "Feature", "geometry": {"type": "Polygon", "coordinates": [[[77.8622763, 9.168587], [77.8623724, 9.1686293], [77.8624473, 9.1684721], [77.8623946, 9.1684496], [77.862353, 9.1684318], [77.8622763, 9.168587]]]}, "properties": {"kind": "landuse", "name": "", "osm_id": 824438494, "tag": "residential"}}, {"type": "Feature", "geometry": {"type": "Polygon", "coordinates": [[[77.8623724, 9.1686293], [77.8624836, 9.1686782], [77.8625578, 9.1685191], [77.8624951, 9.1684924], [77.8624473, 9.1684721], [77.8623724, 9.1686293]]]}, "properties": {"kind": "landuse", "name": "", "osm_id": 824438495, "tag": "residential"}}, {"type": "Feature", "geometry": {"type": "Polygon", "coordinates": [[[77.8624836, 9.1686782], [77.8627962, 9.1688157], [77.8628223, 9.1686319], [77.8626096, 9.1685412], [77.8625578, 9.1685191], [77.8624836, 9.1686782]]]}, "properties": {"kind": "landuse", "name": "", "osm_id": 824438496, "tag": "residential"}}, {"type": "Feature", "geometry": {"type": "Polygon", "coordinates": [[[77.8274649, 9.1993605], [77.8275856, 9.1982643], [77.8289133, 9.1983464], [77.8288302, 9.1994611], [77.8274649, 9.1993605]]]}, "properties": {"kind": "landuse", "name": "", "osm_id": 906807474, "tag": "industrial"}}, {"type": "Feature", "geometry": {"type": "Polygon", "coordinates": [[[77.8788561, 9.1810961], [77.8796937, 9.1817053], [77.88075, 9.1824754], [77.8812538, 9.1828335], [77.8821724, 9.1834841], [77.882801, 9.1822926], [77.8796355, 9.1800967], [77.8788561, 9.1810961]]]}, "properties": {"kind": "landuse", "name": "Valluvar Nagar", "osm_id": 974199089, "tag": "residential"}}, {"type": "Feature", "geometry": {"type": "Polygon", "coordinates": [[[77.9181214, 9.1382713], [77.9181612, 9.1360269], [77.9182228, 9.135966], [77.9182416, 9.1348643], [77.9187351, 9.134814], [77.9208782, 9.1347663], [77.9224661, 9.1347293], [77.9224285, 9.134099], [77.9226646, 9.1340937], [77.9226968, 9.1338845], [77.9226619, 9.1334158], [77.9237884, 9.1334422], [77.9237348, 9.1343161], [77.9251993, 9.1343188], [77.9251993, 9.1343718], [77.9262936, 9.1343982], [77.9262453, 9.1353569], [77.9224554, 9.1351265], [77.9224232, 9.135243], [77.9223481, 9.1363102], [77.9221147, 9.1364797], [77.9220799, 9.1370994], [77.9222998, 9.1371206], [77.9222998, 9.1381269], [77.9181214, 9.1382713]]]}, "properties": {"kind": "landuse", "name": "", "osm_id": 1144250230, "tag": "industrial"}}], "properties": {"source": "OpenStreetMap via Overpass", "retrieved": "2026-09-18"}}