{"type": "FeatureCollection", "features": [{"type": "Feature", "geometry": {"type": "Point", "coordinates": [77.8348368, 9.147855]}, "properties": {"kind": "college", "name": "National Engineering College", "osm_id": 4543308072, "osm_type": "node", "osm_tag": "amenity=college", "operator": ""}}, {"type": "Feature", "geometry": {"type": "Point", "coordinates": [77.8730646, 9.1826185]}, "properties": {"kind": "rail_station", "name": "Kovilpatti", "osm_id": 5349727102, "osm_type": "node", "osm_tag": "railway=station", "operator": "SR"}}, {"type": "Feature", "geometry": {"type": "Point", "coordinates": [77.8512467, 9.1657833]}, "properties": {"kind": "hospital", "name": "Kovilpatti Venkateswara Hospitals (Run By Dhamayanthi Hospitals (P) Ltd)", "osm_id": 6914927137, "osm_type": "node", "osm_tag": "amenity=hospital", "operator": ""}}, {"type": "Feature", "geometry": {"type": "Point", "coordinates": [77.8666735, 9.1741944]}, "properties": {"kind": "hospital", "name": "Sri Murali Hospital, Tuticorin", "osm_id": 6915000700, "osm_type": "node", "osm_tag": "amenity=hospital", "operator": ""}}, {"type": "Feature", "geometry": {"type": "Point", "coordinates": [77.8597601, 9.1724945]}, "properties": {"kind": "hospital", "name": "Padma Hospital, Tuticorin", "osm_id": 6933992437, "osm_type": "node", "osm_tag": "amenity=hospital", "operator": ""}}, {"type": "Feature", "geometry": {"type": "Point", "coordinates": [77.8670678, 9.1738859]}, "properties": {"kind": "hospital", "name": "Padma Praba Hospital", "osm_id": 6934340756, "osm_type": "node", "osm_tag": "amenity=hospital", "operator": ""}}, {"type": "Feature", "geometry": {"type": "Point", "coordinates": [77.8648214, 9.1726944]}, "properties": {"kind": "hospital", "name": "Sudiksha Prabhu Hospital", "osm_id": 6934678974, "osm_type": "node", "osm_tag": "amenity=hospital", "operator": ""}}, {"type": "Feature", "geometry": {"type": "Point", "coordinates": [77.8662443, 9.1745333]}, "properties": {"kind": "hospital", "name": "Aarthi Hospital", "osm_id": 6937561346, "osm_type": "node", "osm_tag": "amenity=hospital", "operator": ""}}, {"type": "Feature", "geometry": {"type": "Point", "coordinates": [77.8657394, 9.1742024]}, "properties": {"kind": "hospital", "name": "Rhyatham Hospital, Kovilpatti", "osm_id": 7181812929, "osm_type": "node", "osm_tag": "amenity=hospital", "operator": ""}}, {"type": "Feature", "geometry": {"type": "Point", "coordinates": [77.8743474, 9.175784]}, "properties": {"kind": "hospital", "name": "Government Hospital, Kovilpatti", "osm_id": 7249356962, "osm_type": "node", "osm_tag": "amenity=hospital", "operator": ""}}, {"type": "Feature", "geometry": {"type": "Point", "coordinates": [77.8648912, 9.1748114]}, "properties": {"kind": "clinic", "name": "Alwar Clinic", "osm_id": 7841693859, "osm_type": "node", "osm_tag": "amenity=clinic", "operator": ""}}, {"type": "Feature", "geometry": {"type": "Point", "coordinates": [77.8674968, 9.1766246]}, "properties": {"kind": "hospital", "name": "", "osm_id": 7841693861, "osm_type": "node", "osm_tag": "amenity=hospital", "operator": ""}}, {"type": "Feature", "geometry": {"type": "Point", "coordinates": [77.865553, 9.173753]}, "properties": {"kind": "clinic", "name": "Lochana Clinics", "osm_id": 7841693863, "osm_type": "node", "osm_tag": "amenity=clinic", "operator": ""}}, {"type": "Feature", "geometry": {"type": "Point", "coordinates": [77.860087, 9.181803]}, "properties": {"kind": "hospital", "name": "Jeya Shri Hospital", "osm_id": 7841693864, "osm_type": "node", "osm_tag": "amenity=hospital", "operator": ""}}, {"type": "Feature", "geometry": {"type": "Point", "coordinates": [77.8665814, 9.1633254]}, "properties": {"kind": "hospital", "name": "One Rupee Hospital", "osm_id": 7841693868, "osm_type": "node", "osm_tag": "amenity=hospital", "operator": ""}}, {"type": "Feature", "geometry": {"type": "Point", "coordinates": [77.850617, 9.184182]}, "properties": {"kind": "hospital", "name": "Sri Siddhar Siddha Hospital & Research Centre", "osm_id": 7841693869, "osm_type": "node", "osm_tag": "amenity=hospital", "operator": ""}}, {"type": "Feature", "geometry": {"type": "Point", "coordinates": [77.8663602, 9.174386]}, "properties": {"kind": "hospital", "name": "Sri Sendur Hospital", "osm_id": 7841693872, "osm_type": "node", "osm_tag": "amenity=hospital", "operator": ""}}, {"type": "Feature", "geometry": {"type": "Point", "coordinates": [77.86497, 9.171943]}, "properties": {"kind": "clinic", "name": "Anubala Heart Centre & Women Health Clinic", "osm_id": 7841693874, "osm_type": "node", "osm_tag": "amenity=clinic", "operator": ""}}, {"type": "Feature", "geometry": {"type": "Point", "coordinates": [77.872385, 9.177407]}, "properties": {"kind": "hospital", "name": "Meenatchi Hospital", "osm_id": 7841693878, "osm_type": "node", "osm_tag": "amenity=hospital", "operator": ""}}, {"type": "Feature", "geometry": {"type": "Point", "coordinates": [77.869416, 9.17607]}, "properties": {"kind": "clinic", "name": "Shri Mariyappa Clinic", "osm_id": 7841693879, "osm_type": "node", "osm_tag": "amenity=clinic", "operator": ""}}, {"type": "Feature", "geometry": {"type": "Point", "coordinates": [77.865731, 9.173894]}, "properties": {"kind": "hospital", "name": "Sri Lakshmi Hospital", "osm_id": 7841693881, "osm_type": "node", "osm_tag": "amenity=hospital", "operator": ""}}, {"type": "Feature", "geometry": {"type": "Point", "coordinates": [77.8720657, 9.1797587]}, "properties": {"kind": "hospital", "name": "Murali Nursing Home", "osm_id": 7841693884, "osm_type": "node", "osm_tag": "amenity=hospital", "operator": ""}}, {"type": "Feature", "geometry": {"type": "Point", "coordinates": [77.868017, 9.174734]}, "properties": {"kind": "hospital", "name": "Dr. Sennakesvan Hospital", "osm_id": 7841693887, "osm_type": "node", "osm_tag": "amenity=hospital", "operator": ""}}, {"type": "Feature", "geometry": {"type": "Point", "coordinates": [77.8665108, 9.1749493]}, "properties": {"kind": "clinic", "name": "Shri Shanthi Clinic", "osm_id": 7841693888, "osm_type": "node", "osm_tag": "amenity=clinic", "operator": ""}}, {"type": "Feature", "geometry": {"type": "Point", "coordinates": [77.864882, 9.1728787]}, "properties": {"kind": "hospital", "name": "Ganga Hospital", "osm_id": 7841693891, "osm_type": "node", "osm_tag": "amenity=hospital", "operator": ""}}, {"type": "Feature", "geometry": {"type": "Point", "coordinates": [77.8825485, 9.1822865]}, "properties": {"kind": "clinic", "name": "Meenakshi Clinic", "osm_id": 7841693892, "osm_type": "node", "osm_tag": "amenity=clinic", "operator": ""}}, {"type": "Feature", "geometry": {"type": "Point", "coordinates": [77.870463, 9.171408]}, "properties": {"kind": "clinic", "name": "Selvan Clinic", "osm_id": 7841693893, "osm_type": "node", "osm_tag": "amenity=clinic", "operator": ""}}, {"type": "Feature", "geometry": {"type": "Point", "coordinates": [77.860803, 9.172874]}, "properties": {"kind": "clinic", "name": "Abi Clinic", "osm_id": 7841693895, "osm_type": "node", "osm_tag": "amenity=clinic", "operator": ""}}, {"type": "Feature", "geometry": {"type": "Point", "coordinates": [77.8723601, 9.1697206]}, "properties": {"kind": "clinic", "name": "Vasan Poly Clinic", "osm_id": 7841693897, "osm_type": "node", "osm_tag": "amenity=clinic", "operator": ""}}, {"type": "Feature", "geometry": {"type": "Point", "coordinates": [77.863934, 9.17461]}, "properties": {"kind": "hospital", "name": "RMS Hospital", "osm_id": 7841693898, "osm_type": "node", "osm_tag": "amenity=hospital", "operator": ""}}, {"type": "Feature", "geometry": {"type": "Point", "coordinates": [77.8651038, 9.1732982]}, "properties": {"kind": "hospital", "name": "Srinivasa Hospital", "osm_id": 7841693900, "osm_type": "node", "osm_tag": "amenity=hospital", "operator": ""}}, {"type": "Feature", "geometry": {"type": "Point", "coordinates": [77.879661, 9.175538]}, "properties": {"kind": "hospital", "name": "Visakan Hospital", "osm_id": 7841693903, "osm_type": "node", "osm_tag": "amenity=hospital", "operator": ""}}, {"type": "Feature", "geometry": {"type": "Point", "coordinates": [77.866514, 9.177053]}, "properties": {"kind": "hospital", "name": "Siva Sakthii Hospital", "osm_id": 7841693904, "osm_type": "node", "osm_tag": "amenity=hospital", "operator": ""}}, {"type": "Feature", "geometry": {"type": "Point", "coordinates": [77.871751, 9.176971]}, "properties": {"kind": "hospital", "name": "Meenakshi Hospital", "osm_id": 7841693906, "osm_type": "node", "osm_tag": "amenity=hospital", "operator": ""}}, {"type": "Feature", "geometry": {"type": "Point", "coordinates": [77.866287, 9.17563]}, "properties": {"kind": "hospital", "name": "Karthik Nursing Home", "osm_id": 7841693907, "osm_type": "node", "osm_tag": "amenity=hospital", "operator": ""}}, {"type": "Feature", "geometry": {"type": "Point", "coordinates": [77.8665546, 9.1763119]}, "properties": {"kind": "hospital", "name": "Parithi Homeopatthi Hospital", "osm_id": 7841693914, "osm_type": "node", "osm_tag": "amenity=hospital", "operator": ""}}, {"type": "Feature", "geometry": {"type": "Point", "coordinates": [77.8672778, 9.1738447]}, "properties": {"kind": "clinic", "name": "Lakshmi Siddha Clinic", "osm_id": 7841693915, "osm_type": "node", "osm_tag": "amenity=clinic", "operator": ""}}, {"type": "Feature", "geometry": {"type": "Point", "coordinates": [77.8651564, 9.174867]}, "properties": {"kind": "hospital", "name": "Thulasi Hospital", "osm_id": 7841693916, "osm_type": "node", "osm_tag": "amenity=hospital", "operator": ""}}, {"type": "Feature", "geometry": {"type": "Point", "coordinates": [77.866054, 9.174534]}, "properties": {"kind": "hospital", "name": "Vasan Hospital", "osm_id": 7841693917, "osm_type": "node", "osm_tag": "amenity=hospital", "operator": ""}}, {"type": "Feature", "geometry": {"type": "Point", "coordinates": [77.874286, 9.1732537]}, "properties": {"kind": "clinic", "name": "Sumathi Homoeopathy Clinic", "osm_id": 7841693918, "osm_type": "node", "osm_tag": "amenity=clinic", "operator": ""}}, {"type": "Feature", "geometry": {"type": "Point", "coordinates": [77.8717781, 9.1760067]}, "properties": {"kind": "hospital", "name": "Aravind Eye Hospital", "osm_id": 7841693920, "osm_type": "node", "osm_tag": "amenity=hospital", "operator": ""}}, {"type": "Feature", "geometry": {"type": "Point", "coordinates": [77.8743314, 9.1779246]}, "properties": {"kind": "hospital", "name": "Balaji Hospital", "osm_id": 7841693926, "osm_type": "node", "osm_tag": "amenity=hospital", "operator": ""}}, {"type": "Feature", "geometry": {"type": "Point", "coordinates": [77.8655402, 9.1736972]}, "properties": {"kind": "clinic", "name": "Sri Sairam Acupuncture", "osm_id": 7841693930, "osm_type": "node", "osm_tag": "amenity=clinic", "operator": ""}}, {"type": "Feature", "geometry": {"type": "Point", "coordinates": [77.868811, 9.172189]}, "properties": {"kind": "clinic", "name": "Gowri Clinic", "osm_id": 7841693931, "osm_type": "node", "osm_tag": "amenity=clinic", "operator": ""}}, {"type": "Feature", "geometry": {"type": "Point", "coordinates": [77.847711, 9.163599]}, "properties": {"kind": "hospital", "name": "Jai Hospital", "osm_id": 7841693934, "osm_type": "node", "osm_tag": "amenity=hospital", "operator": ""}}, {"type": "Feature", "geometry": {"type": "Point", "coordinates": [77.874336, 9.17317]}, "properties": {"kind": "hospital", "name": "Sri Hospital", "osm_id": 7841693935, "osm_type": "node", "osm_tag": "amenity=hospital", "operator": ""}}, {"type": "Feature", "geometry": {"type": "Point", "coordinates": [77.8731972, 9.1726333]}, "properties": {"kind": "clinic", "name": "K.G. Clinic", "osm_id": 7841693936, "osm_type": "node", "osm_tag": "amenity=clinic", "operator": ""}}, {"type": "Feature", "geometry": {"type": "Point", "coordinates": [77.84376, 9.192964]}, "properties": {"kind": "hospital", "name": "Aravind Eye Hospital", "osm_id": 7849819535, "osm_type": "node", "osm_tag": "amenity=hospital", "operator": ""}}, {"type": "Feature", "geometry": {"type": "Point", "coordinates": [77.8751836, 9.1727519]}, "properties": {"kind": "hospital", "name": "", "osm_id": 12622178047, "osm_type": "node", "osm_tag": "amenity=hospital", "operator": ""}}, {"type": "Feature", "geometry": {"type": "Point", "coordinates": [77.87439, 9.1763876]}, "properties": {"kind": "school", "name": "", "osm_id": 12622178048, "osm_type": "node", "osm_tag": "amenity=school", "operator": ""}}, {"type": "Feature", "geometry": {"type": "LineString", "coordinates": [[77.8659479, 9.1777045], [77.8652176, 9.178242], [77.8648108, 9.1785485], [77.8637514, 9.1793466], [77.8613528, 9.1811046], [77.8603951, 9.1817954], [77.8600776, 9.1820245], [77.8597255, 9.1822785], [77.8586755, 9.1830359], [77.8572654, 9.1838938]]}, "properties": {"kind": "road", "name": "Paruvakudi - Kovilpatti - Ettayapuram - Vilathikulam - Vembar Road", "osm_id": 22836578, "osm_type": "way", "highway": "primary"}}, {"type": "Feature", "geometry": {"type": "LineString", "coordinates": [[77.8269157, 9.1374914], [77.827154, 9.1379324], [77.8275751, 9.1385946], [77.8279442, 9.1390345], [77.828261, 9.1393295], [77.8301068, 9.1409943], [77.8307111, 9.1415394]]}, "properties": {"kind": "road", "name": "", "osm_id": 50857758, "osm_type": "way", "highway": "trunk"}}, {"type": "Feature", "geometry": {"type": "LineString", "coordinates": [[77.8647563, 9.1748801], [77.864654, 9.1747921], [77.8643532, 9.1746379], [77.8642115, 9.1745583], [77.8630435, 9.1739035], [77.8627511, 9.1737396], [77.8622812, 9.1734543], [77.8619366, 9.1732557], [77.8612699, 9.1728286], [77.860559, 9.1724017], [77.8599598, 9.1721752], [77.8595831, 9.172007], [77.8591826, 9.1717332], [77.8590367, 9.1716135], [77.8588119, 9.1715259]]}, "properties": {"kind": "road", "name": "Varanasi - Kanniyakumari Road (Old NH7)", "osm_id": 93420238, "osm_type": "way", "highway": "primary"}}, {"type": "Feature", "geometry": {"type": "LineString", "coordinates": [[77.8772222, 9.1863464], [77.8757989, 9.1852759], [77.8756896, 9.1852101], [77.8754773, 9.1849204], [77.8755393, 9.1843615], [77.8756291, 9.183633], [77.8755961, 9.1833972], [77.8754996, 9.1832404], [77.8754135, 9.1831364], [77.8747361, 9.18269]]}, "properties": {"kind": "road", "name": "Varanasi - Kanniyakumari Road (Old NH7)", "osm_id": 93420245, "osm_type": "way", "highway": "primary"}}, {"type": "Feature", "geometry": {"type": "LineString", "coordinates": [[77.8582624, 9.1711842], [77.8575225, 9.1708228], [77.8572171, 9.1707022], [77.8568511, 9.1705656], [77.8565244, 9.1705561], [77.8562839, 9.1705019], [77.8562176, 9.1704869], [77.8559957, 9.1703254], [77.8552628, 9.1696772], [77.8545046, 9.1693004], [77.8541075, 9.1691032]]}, "properties": {"kind": "road", "name": "Varanasi - Kanniyakumari Road (Old NH7)", "osm_id": 93420286, "osm_type": "way", "highway": "primary"}}, {"type": "Feature", "geometry": {"type": "LineString", "coordinates": [[77.9348071, 9.083015], [77.9347676, 9.0830576], [77.9347168, 9.0831125], [77.934593, 9.0832207], [77.9344649, 9.0832792], [77.9342889, 9.0833115], [77.9341413, 9.0833054], [77.9338911, 9.0832443], [77.9335082, 9.0831448], [77.9332403, 9.0831299], [77.9329868, 9.0831751], [77.9323079, 9.0833208], [77.9316627, 9.0834677], [77.9313639, 9.0835813], [77.9310001, 9.0838307], [77.9305212, 9.0841777], [77.9301666, 9.0844973], [77.9271529, 9.0880474], [77.9264148, 9.0889004], [77.9252037, 9.0903212], [77.9247013, 9.0909093], [77.9237898, 9.0918421], [77.9233934, 9.0922446], [77.9229533, 9.092657], [77.9226094, 9.0929619], [77.9212833, 9.0940476], [77.9211083, 9.0941978], [77.9210269, 9.0943043], [77.9209836, 9.0944047], [77.9209261, 9.0946413], [77.9208324, 9.0950516], [77.92067, 9.0958093], [77.9206173, 9.0961108], [77.9205649, 9.096455], [77.9204918, 9.0966922], [77.9203857, 9.0968004], [77.9201576, 9.096996], [77.920022, 9.0971114], [77.9198187, 9.0972843], [77.9188659, 9.0985951], [77.9179596, 9.099842], [77.9172039, 9.1008816], [77.9167513, 9.1013655], [77.9164637, 9.1016618], [77.9162262, 9.1018371], [77.9158211, 9.10201], [77.9153634, 9.1021754], [77.9147183, 9.1025112], [77.9141406, 9.1028643], [77.9133329, 9.1033458], [77.9129453, 9.1035532], [77.9126988, 9.1037036], [77.9125375, 9.1038567], [77.9123927, 9.1039977], [77.9120899, 9.1042394], [77.9112422, 9.1047777], [77.9102367, 9.1054659], [77.9073958, 9.1066746], [77.9012299, 9.1110826], [77.9009521, 9.11139], [77.9006721, 9.1117477], [77.9003754, 9.1119269], [77.900156, 9.112051], [77.8990208, 9.1126928], [77.8988633, 9.1128068], [77.8980638, 9.1133856], [77.8978579, 9.1139718], [77.8978077, 9.1141147], [77.8961616, 9.1188009], [77.8950067, 9.1206393], [77.8949621, 9.1207103], [77.8947659, 9.1210226], [77.8945898, 9.121303], [77.8944564, 9.1217298], [77.8944004, 9.1219091], [77.8943442, 9.122089], [77.8942928, 9.1222534], [77.8942212, 9.1224282], [77.894186, 9.1224982], [77.8934117, 9.1240416], [77.890044, 9.1307541], [77.8888473, 9.1349147], [77.8882455, 9.136483], [77.887665, 9.1379956], [77.8875335, 9.1387898], [77.8873669, 9.1398293], [77.8871724, 9.1408369], [77.887002, 9.1421346], [77.8865722, 9.1461442], [77.886261, 9.147411], [77.8860421, 9.150734], [77.8858404, 9.1514742], [77.88583, 9.1529104], [77.8858231, 9.1538649], [77.8858155, 9.1549095], [77.8843714, 9.1573668], [77.8821367, 9.1598348], [77.8811978, 9.1608717], [77.8798946, 9.1621085], [77.87929, 9.1626477], [77.8777744, 9.1639994], [77.8776463, 9.1641136], [77.8769451, 9.164739], [77.8768299, 9.1648417], [77.8764666, 9.1651657], [77.8761606, 9.1654385], [77.8759259, 9.1656196], [77.8758336, 9.1656908], [77.8757967, 9.1657193], [77.875748, 9.1658026], [77.8756219, 9.1659531], [77.8751553, 9.1665103], [77.8748977, 9.1668392], [77.8746189, 9.1671953], [77.874344, 9.1675463], [77.8738012, 9.1682395], [77.8735576, 9.1685506], [77.8734334, 9.1687093], [77.8733797, 9.1687778], [77.8729731, 9.1692971], [77.8728248, 9.1694864], [77.872631, 9.169734], [77.8721416, 9.1703589], [77.8719821, 9.1709532], [77.8717395, 9.1718567], [77.8715381, 9.1726355], [77.8715088, 9.1727199]]}, "properties": {"kind": "road", "name": "Kovilpatti - Ottapidaram - Puducottai - Eral - Mukkani Road", "osm_id": 157767189, "osm_type": "way", "highway": "primary"}}, {"type": "Feature", "geometry": {"type": "LineString", "coordinates": [[77.4019691, 9.1845903], [77.4022379, 9.1844797], [77.4056262, 9.1824339], [77.4073289, 9.182059], [77.4126953, 9.1814898], [77.4150322, 9.1808727], [77.4169559, 9.18145], [77.4182602, 9.1814688], [77.424613, 9.1815601], [77.4294099, 9.1818471], [77.4384253, 9.1814637], [77.4407064, 9.1816648], [77.4420045, 9.1817793], [77.4462799, 9.1834178], [77.4465859, 9.1834844], [77.4479002, 9.1833256], [77.4485655, 9.1832877], [77.4486786, 9.1832878], [77.4487853, 9.1833137], [77.4489989, 9.1834496], [77.4495792, 9.1837545], [77.4497882, 9.1837769], [77.4499386, 9.1837704], [77.4525584, 9.1832685], [77.4537688, 9.182653], [77.4556875, 9.1814843], [77.4581109, 9.1801061], [77.4583703, 9.1800321], [77.4598855, 9.1796001], [77.463654, 9.1799744], [77.4637329, 9.1799822], [77.4695253, 9.1815118], [77.4738555, 9.1822426], [77.4754007, 9.1826118], [77.4784787, 9.1833472], [77.4811707, 9.1839904], [77.4827553, 9.1850104], [77.4855676, 9.1868207], [77.4879469, 9.187823], [77.4880717, 9.1878756], [77.49193, 9.1889473], [77.4920672, 9.1889813], [77.4921861, 9.1889548], [77.4978537, 9.1859872], [77.5019479, 9.1838684], [77.5050261, 9.182404], [77.5056598, 9.1821025], [77.5062811, 9.1817845], [77.506396, 9.1817401], [77.5065172, 9.181721], [77.5066801, 9.1817086], [77.5114042, 9.1814456], [77.5117063, 9.1814123], [77.5119352, 9.1812497], [77.5133139, 9.1795021], [77.513564, 9.1793072], [77.5142388, 9.1790684], [77.515684, 9.1789556], [77.5159919, 9.1788338], [77.5161981, 9.1786128], [77.5163841, 9.1777508], [77.5180073, 9.1762071], [77.5186057, 9.1760325], [77.5205206, 9.1753063], [77.5219046, 9.1744733], [77.521972, 9.1744342], [77.5222261, 9.1743294], [77.5241528, 9.1735036], [77.5256087, 9.1732054], [77.5257272, 9.173118], [77.5257466, 9.1729846], [77.5256366, 9.1722437], [77.525636, 9.1713625], [77.5256792, 9.1711774], [77.5258774, 9.1710818], [77.5271568, 9.1709891], [77.5272694, 9.1709415], [77.5273311, 9.1708806], [77.5275859, 9.1703933], [77.5277013, 9.1702556], [77.5278568, 9.1701709], [77.5280178, 9.1701868], [77.5300222, 9.1707236], [77.5305084, 9.1707304], [77.5313142, 9.1707773], [77.5314125, 9.1707669], [77.531451, 9.1707084], [77.531459, 9.1702901], [77.53154, 9.170216], [77.5316315, 9.1701612], [77.531783, 9.1701474], [77.5322847, 9.1701367], [77.5344308, 9.1700909], [77.535369, 9.170073], [77.5366186, 9.1700786], [77.5368584, 9.1700801], [77.5374269, 9.1700839], [77.5384407, 9.1700907], [77.5393349, 9.1700966], [77.5396375, 9.1700986], [77.5405539, 9.170125], [77.540979, 9.1701373], [77.5423679, 9.1701774], [77.5426263, 9.1701848], [77.5430917, 9.1701983], [77.5437703, 9.1702179], [77.5438839, 9.1702211], [77.5458702, 9.1701761], [77.5461584, 9.1701791], [77.5470294, 9.1701882], [77.5472217, 9.1701903], [77.5494171, 9.1702133], [77.5509181, 9.170229], [77.5509739, 9.1702218], [77.5567044, 9.1694837], [77.5578783, 9.1692989], [77.5595308, 9.1690388], [77.5608074, 9.1687689], [77.5673065, 9.1674399], [77.567987, 9.1672734], [77.5686675, 9.1671237], [77.5814081, 9.1644553], [77.5886918, 9.1629368], [77.5898244, 9.1627171], [77.5911993, 9.1624756], [77.5927574, 9.1621935], [77.5934248, 9.1620803], [77.5952998, 9.1617386], [77.5956117, 9.1616825], [77.5960086, 9.1616177], [77.597786, 9.1612832], [77.5996788, 9.1609576], [77.6050908, 9.1600018], [77.6066529, 9.1599259], [77.6141803, 9.1595601], [77.615166, 9.1594993], [77.6172455, 9.1593711], [77.6186598, 9.1592839], [77.6190192, 9.1592618], [77.6347129, 9.1585157], [77.6356167, 9.1584727], [77.6373333, 9.1588857], [77.6374249, 9.1589844], [77.6385014, 9.1602174], [77.6396272, 9.1614212], [77.6407006, 9.1625438], [77.6407825, 9.162593], [77.6409334, 9.162656], [77.6429552, 9.16272], [77.6462039, 9.1637788], [77.6463026, 9.163811], [77.6463944, 9.1638079], [77.6489714, 9.1634112], [77.651386, 9.163077], [77.6516569, 9.163032], [77.6518393, 9.1629685], [77.6520243, 9.1627063], [77.6522035, 9.1623176], [77.6528064, 9.1588207], [77.6528901, 9.158335], [77.6531905, 9.1579113], [77.6551003, 9.1568627], [77.6569778, 9.1558246], [77.6585657, 9.1558564], [77.6594621, 9.1556229], [77.661087, 9.1550726], [77.663104, 9.1547045], [77.6635364, 9.1547226], [77.6639494, 9.1548788], [77.6640648, 9.1548735], [77.6641828, 9.1547808], [77.6650169, 9.1535124], [77.6651183, 9.1534176], [77.6652369, 9.1533694], [77.6685006, 9.1531978], [77.6719204, 9.1528297], [77.676537, 9.1526412], [77.6766685, 9.1526279], [77.6767677, 9.1526094], [77.6789612, 9.1517996], [77.6809997, 9.1507721], [77.6859564, 9.1494587], [77.6908385, 9.1492357], [77.6922354, 9.1489278], [77.6923282, 9.1489073], [77.6950335, 9.1490557], [77.6963747, 9.1492119], [77.6970157, 9.149196], [77.6977478, 9.1491939], [77.6982698, 9.1491976], [77.6983773, 9.1491607], [77.6984563, 9.1490932], [77.698493, 9.1490389], [77.6985628, 9.1486199], [77.6986181, 9.1479909], [77.6986594, 9.147848], [77.6987494, 9.1477548], [77.6988663, 9.1476929], [77.6988995, 9.1476853], [77.6990491, 9.1476511], [77.6999135, 9.1476119], [77.7003572, 9.1476695], [77.7004644, 9.1476818], [77.7015218, 9.1477448], [77.7016166, 9.1477057], [77.7016399, 9.1476098], [77.7016226, 9.1474693], [77.7016217, 9.1474486], [77.7016006, 9.1469537], [77.7017069, 9.1468631], [77.7018693, 9.1468227], [77.7036726, 9.1467199], [77.7041251, 9.1466888], [77.7055156, 9.1467148], [77.7057302, 9.146736], [77.7058965, 9.1467836], [77.7060413, 9.1469372], [77.70639, 9.1478747], [77.7065295, 9.1482136], [77.7067923, 9.148579], [77.7070552, 9.149151], [77.707243, 9.1495324], [77.7074683, 9.1501096], [77.7076077, 9.1504592], [77.7077365, 9.1508352], [77.707833, 9.1509941], [77.7079672, 9.1510682], [77.7086323, 9.1511901], [77.7093565, 9.1513648], [77.7095872, 9.1514178], [77.7097052, 9.1513913], [77.7099091, 9.151333], [77.7103007, 9.1510312], [77.7110141, 9.1507558], [77.7117062, 9.150491], [77.712146, 9.1504168], [77.7127093, 9.1504433], [77.712999, 9.1503691], [77.7137178, 9.1500355], [77.7140397, 9.1499349], [77.7143133, 9.1499455], [77.7146083, 9.1499084], [77.7149194, 9.1498395], [77.7154666, 9.1497071], [77.7164863, 9.1495943], [77.7192323, 9.1492707], [77.7195511, 9.1491243], [77.7203605, 9.1487527], [77.7224408, 9.1483989], [77.7239986, 9.1484402], [77.7247341, 9.1485541], [77.7254379, 9.1487384], [77.7277789, 9.1488321], [77.7285047, 9.148767], [77.7290621, 9.1485334], [77.7301532, 9.1480186], [77.73135, 9.1474827], [77.7346277, 9.1457312], [77.7358502, 9.1448134], [77.7372439, 9.1442181], [77.7392143, 9.1440867], [77.7400747, 9.1439173], [77.7401363, 9.1439126], [77.7434463, 9.1436593], [77.7441636, 9.1436642], [77.7446597, 9.1437653], [77.7466687, 9.1439586], [77.7484518, 9.1442504], [77.7487419, 9.1443409], [77.7498219, 9.1446778], [77.7505917, 9.1447726], [77.7511624, 9.1448086], [77.754578, 9.1446847], [77.7550554, 9.1446921], [77.7580927, 9.1448806], [77.7594542, 9.1446524], [77.7622689, 9.1443775], [77.7642806, 9.1443775], [77.7667455, 9.1446095], [77.7690485, 9.1444278], [77.7693387, 9.1443457], [77.7720155, 9.1442636], [77.7724621, 9.144239], [77.772705, 9.1442256], [77.7728808, 9.14418], [77.7729812, 9.1441011], [77.7732567, 9.1438695], [77.7738722, 9.1433521], [77.7740973, 9.1432559], [77.7742599, 9.1431864], [77.7743592, 9.143144], [77.7748716, 9.1431143], [77.7766559, 9.1432563], [77.7768392, 9.1432383], [77.7775908, 9.1429565], [77.7778763, 9.1428459], [77.7781905, 9.1428416], [77.7782956, 9.1428411], [77.7789196, 9.1428379], [77.7802488, 9.1426244], [77.7807781, 9.1425757], [77.7822383, 9.1422098], [77.783887, 9.1419142], [77.7845133, 9.1418509], [77.7849468, 9.1419328], [77.7855339, 9.1422765], [77.7856722, 9.1422947], [77.7888952, 9.1427192], [77.7889526, 9.142726], [77.7907325, 9.1429362], [77.7911504, 9.1429856], [77.7923523, 9.1429323], [77.7938589, 9.1428654], [77.7940608, 9.142847], [77.7950503, 9.1427568], [77.7962659, 9.1423819], [77.797047, 9.1422849], [77.7983613, 9.1417002], [77.7996493, 9.1412628], [77.8015005, 9.1410737], [77.8031002, 9.1409323], [77.8040516, 9.1405432], [77.8047547, 9.1402507], [77.8048801, 9.1402014], [77.8049934, 9.1401951], [77.8056966, 9.1402088], [77.806748, 9.1401309], [77.8077029, 9.140159], [77.8103137, 9.1406415], [77.8120341, 9.1406992], [77.812519, 9.1407617], [77.8125737, 9.140789], [77.8133194, 9.141161], [77.8146648, 9.1418321], [77.814829, 9.1418555], [77.8150135, 9.1417881], [77.8170219, 9.1405139], [77.8171867, 9.1403487], [77.817317, 9.1402575], [77.8175139, 9.1402348], [77.8177536, 9.1402183], [77.8184746, 9.1400445], [77.8188154, 9.1399466], [77.8194515, 9.1397639], [77.8199177, 9.1395288], [77.8201188, 9.1394274], [77.8209079, 9.1390293], [77.8218885, 9.1388083], [77.8221557, 9.1387481], [77.8223212, 9.1387016], [77.8227242, 9.1385884], [77.8237731, 9.1382938], [77.8243846, 9.138122], [77.8244307, 9.1381078], [77.8245938, 9.1380576], [77.8248451, 9.1379325], [77.825069, 9.137821], [77.8251118, 9.1377997], [77.8257458, 9.1375281], [77.8262149, 9.1374088], [77.8264646, 9.137366], [77.8265977, 9.1373264], [77.8269964, 9.1372213]]}, "properties": {"kind": "road", "name": "Puliangudi - Sankarankovil - Kalugumalai - Nalatinpudur Road", "osm_id": 158788119, "osm_type": "way", "highway": "primary"}}, {"type": "Feature", "geometry": {"type": "LineString", "coordinates": [[77.8307116, 9.1413969], [77.8289236, 9.1397958], [77.8279834, 9.1389371], [77.8276984, 9.1385946], [77.8273193, 9.1380046], [77.8270134, 9.1374421]]}, "properties": {"kind": "road", "name": "Madurai _ Tirunelveli - Kanyakukaru", "osm_id": 184268485, "osm_type": "way", "highway": "trunk"}}, {"type": "Feature", "geometry": {"type": "LineString", "coordinates": [[77.8541075, 9.1691032], [77.8538331, 9.1688817], [77.8533463, 9.1683787], [77.853166, 9.1681853], [77.8530313, 9.1680221], [77.8528995, 9.1679491], [77.8528416, 9.1679598], [77.8524339, 9.1681156]]}, "properties": {"kind": "road", "name": "Varanasi - Kanniyakumari Road (Old NH7)", "osm_id": 186163365, "osm_type": "way", "highway": "primary"}}, {"type": "Feature", "geometry": {"type": "LineString", "coordinates": [[77.8820706, 9.2060545], [77.8820559, 9.2061696], [77.8820538, 9.2064976]]}, "properties": {"kind": "road", "name": "Varanasi - Kanniyakumari Road (Old NH7)", "osm_id": 186164505, "osm_type": "way", "highway": "primary"}}, {"type": "Feature", "geometry": {"type": "LineString", "coordinates": [[77.8821229, 9.206656], [77.8821237, 9.2064854], [77.8821141, 9.2062258], [77.8821097, 9.2061743], [77.8820706, 9.2060545]]}, "properties": {"kind": "road", "name": "Varanasi - Kanniyakumari Road (Old NH7)", "osm_id": 186165345, "osm_type": "way", "highway": "primary"}}, {"type": "Feature", "geometry": {"type": "LineString", "coordinates": [[77.8529656, 9.1684446], [77.8530011, 9.1683596], [77.853042, 9.1683137], [77.8531405, 9.1682996], [77.8532245, 9.16833], [77.8533463, 9.1683787]]}, "properties": {"kind": "road", "name": "", "osm_id": 186245733, "osm_type": "way", "highway": "primary_link"}}, {"type": "Feature", "geometry": {"type": "LineString", "coordinates": [[77.8572654, 9.1838938], [77.8571361, 9.1839329], [77.8570413, 9.1840022], [77.8568699, 9.1841417], [77.8568213, 9.1841732], [77.8565168, 9.1843714], [77.8564811, 9.1843949]]}, "properties": {"kind": "road", "name": "Paruvakudi - Kovilpatti - Ettayapuram - Vilathikulam - Vembar Road", "osm_id": 186245914, "osm_type": "way", "highway": "primary"}}, {"type": "Feature", "geometry": {"type": "LineString", "coordinates": [[77.8562133, 9.1846213], [77.8529616, 9.1866512], [77.8528421, 9.1867294], [77.8521847, 9.1871593], [77.8503477, 9.1879896], [77.8502071, 9.1880554], [77.8481832, 9.1890027], [77.8451962, 9.1904007], [77.8447806, 9.1905952], [77.8445879, 9.1906854], [77.8435055, 9.191192], [77.8432949, 9.1912906], [77.8421558, 9.1918237], [77.8396341, 9.193004], [77.8379625, 9.1937864], [77.8377555, 9.1938757], [77.8357579, 9.1947378], [77.8350641, 9.1950372], [77.8346123, 9.1952503], [77.833525, 9.1957632], [77.8315581, 9.1967236], [77.8310001, 9.1971523], [77.8306943, 9.1975441], [77.8304797, 9.1979148], [77.8300023, 9.1985979], [77.8293693, 9.1992175], [77.8289634, 9.1994854]]}, "properties": {"kind": "road", "name": "Paruvakudi - Kovilpatti - Ettayapuram - Vilathikulam - Vembar Road", "osm_id": 186245917, "osm_type": "way", "highway": "primary"}}, {"type": "Feature", "geometry": {"type": "LineString", "coordinates": [[77.8562133, 9.1846213], [77.8563263, 9.1845949]]}, "properties": {"kind": "road", "name": "Paruvakudi - Kovilpatti - Ettayapuram - Vilathikulam - Vembar Road", "osm_id": 186245918, "osm_type": "way", "highway": "primary"}}, {"type": "Feature", "geometry": {"type": "LineString", "coordinates": [[77.8571065, 9.1844408], [77.857077, 9.1843269], [77.8570545, 9.1842389], [77.8570568, 9.1841623], [77.8570715, 9.1840633]]}, "properties": {"kind": "road", "name": "", "osm_id": 186245973, "osm_type": "way", "highway": "primary_link"}}, {"type": "Feature", "geometry": {"type": "LineString", "coordinates": [[77.8563263, 9.1845949], [77.856473, 9.1845594], [77.8565248, 9.1845628], [77.8567091, 9.184575]]}, "properties": {"kind": "road", "name": "", "osm_id": 186245975, "osm_type": "way", "highway": "primary_link"}}, {"type": "Feature", "geometry": {"type": "LineString", "coordinates": [[77.8562877, 9.1842259], [77.8563099, 9.1843928], [77.8562592, 9.1845133], [77.8562432, 9.1845514]]}, "properties": {"kind": "road", "name": "", "osm_id": 186245976, "osm_type": "way", "highway": "primary_link"}}, {"type": "Feature", "geometry": {"type": "LineString", "coordinates": [[77.8570413, 9.1840022], [77.856896, 9.1840275], [77.8566554, 9.1840237]]}, "properties": {"kind": "road", "name": "", "osm_id": 186245978, "osm_type": "way", "highway": "primary_link"}}, {"type": "Feature", "geometry": {"type": "LineString", "coordinates": [[77.8289634, 9.1994854], [77.8286955, 9.1996204], [77.8273715, 9.2000517], [77.825903, 9.2005342], [77.8240788, 9.2011572], [77.823167, 9.2015996], [77.8217192, 9.2021713], [77.8204532, 9.2023196], [77.8195727, 9.2028324], [77.8191875, 9.2030175], [77.8191354, 9.2030425], [77.8181605, 9.203511], [77.8171671, 9.2039341], [77.8161202, 9.2042671], [77.812434, 9.2058224], [77.8091741, 9.2068881], [77.8079742, 9.2072977], [77.8079188, 9.2073166], [77.8078418, 9.2073429], [77.8048675, 9.2087125], [77.7983503, 9.2109866], [77.7951621, 9.2120373], [77.7946944, 9.2121915], [77.7926012, 9.2128043], [77.7918819, 9.2129611], [77.790629, 9.2132342], [77.7871263, 9.2138796], [77.7864385, 9.2140365], [77.786236, 9.2140827], [77.7853543, 9.2143515], [77.7851499, 9.2143664], [77.7849787, 9.214325], [77.7846377, 9.2141162], [77.7842733, 9.2138931], [77.7836475, 9.2137437], [77.7834387, 9.2136939], [77.7827703, 9.2136835], [77.7821253, 9.2138902], [77.7798124, 9.2150706], [77.7778415, 9.2175964], [77.7762933, 9.2205564], [77.7750271, 9.2231413], [77.7734609, 9.2263386], [77.7730532, 9.2284142], [77.773037, 9.2319914], [77.7730338, 9.232705], [77.7730318, 9.2331373], [77.7729096, 9.2334015], [77.7720694, 9.2352182], [77.7712217, 9.2400826], [77.7711194, 9.2403066], [77.7709696, 9.2404108], [77.7701135, 9.2407831], [77.7698994, 9.2409324], [77.7697917, 9.2411431], [77.769757, 9.241351], [77.7697438, 9.2414301], [77.7698131, 9.241715], [77.7701403, 9.2423821], [77.7701676, 9.2426585], [77.7701382, 9.2429169], [77.7698296, 9.2431032], [77.7694247, 9.2431711], [77.76591, 9.2430969], [77.7643017, 9.2428639], [77.7592989, 9.2428798], [77.7581187, 9.2431551], [77.7577153, 9.2431819], [77.7573295, 9.2432074], [77.7565215, 9.243261], [77.7557778, 9.2433104], [77.7552434, 9.2433458], [77.7546374, 9.2432552], [77.7542166, 9.2431922], [77.7502652, 9.2430281], [77.7491283, 9.2427035], [77.7489912, 9.242676], [77.7488413, 9.2426505], [77.7431444, 9.2430545], [77.7419074, 9.2429545], [77.736543, 9.2434945], [77.7363435, 9.2435188], [77.7348693, 9.243484], [77.734522, 9.2435249], [77.7317504, 9.2440288], [77.7291266, 9.2446352], [77.7278559, 9.2449289], [77.7265836, 9.2453325], [77.7255674, 9.2456548], [77.7247936, 9.245661], [77.724503, 9.2456791], [77.7243555, 9.245695], [77.7242128, 9.2457422], [77.7213295, 9.2467561], [77.7102498, 9.2491329], [77.7079539, 9.2497047], [77.6981906, 9.2533792], [77.6906804, 9.2561747], [77.6900746, 9.2563848], [77.689957, 9.2564256], [77.6884792, 9.256938], [77.6856472, 9.2589096], [77.6849141, 9.2594117], [77.6833521, 9.2604815], [77.6825848, 9.2610349], [77.6815541, 9.2620567], [77.6812993, 9.262234], [77.680977, 9.2623074], [77.6809477, 9.2623125], [77.6809285, 9.2623115], [77.6809112, 9.2623072], [77.6806879, 9.2622329], [77.6801637, 9.2620982], [77.6793512, 9.2618832], [77.6791068, 9.2617454], [77.6790215, 9.2616973], [77.6784739, 9.261581], [77.6780382, 9.2615927], [77.6778433, 9.2615841], [77.6777752, 9.2615694], [77.6777226, 9.2615219], [77.6776884, 9.2614759], [77.6776261, 9.261366], [77.6774553, 9.2611917], [77.6770314, 9.2610755], [77.6766016, 9.2609011], [77.6763425, 9.2607326], [77.6759834, 9.2605234], [77.6750943, 9.2603084], [77.6746864, 9.2601481], [77.6745076, 9.2600778], [77.6743995, 9.2600353], [77.6743718, 9.2600202], [77.6739108, 9.259768], [77.6734751, 9.2596692], [77.6729225, 9.2596417], [77.6727568, 9.259583], [77.6726862, 9.2595065], [77.672561, 9.259395], [77.6723957, 9.2593604], [77.6722505, 9.2593496], [77.6714343, 9.2591821], [77.6710611, 9.2591055], [77.6708533, 9.2589641], [77.6707196, 9.2588731], [77.669701, 9.2582571], [77.6690256, 9.2580781], [77.6689352, 9.258063], [77.668279, 9.2579538], [77.6670295, 9.2577019], [77.6651456, 9.2573209], [77.6640828, 9.2571079], [77.6636883, 9.2570731], [77.6633174, 9.2570963], [77.6622752, 9.2572765], [77.6613744, 9.2573985], [77.660503, 9.2574973], [77.6597041, 9.2576114], [77.6595897, 9.2576646], [77.6595048, 9.2577397], [77.6594351, 9.2578381], [77.6593423, 9.2581745]]}, "properties": {"kind": "road", "name": "Paruvakudi - Kovilpatti - Ettayapuram - Vilathikulam - Vembar Road", "osm_id": 187307196, "osm_type": "way", "highway": "primary"}}, {"type": "Feature", "geometry": {"type": "LineString", "coordinates": [[77.8268054, 9.137103], [77.8256752, 9.135063], [77.8255184, 9.1347076]]}, "properties": {"kind": "road", "name": "Madura - Tirunelveli", "osm_id": 187637154, "osm_type": "way", "highway": "trunk"}}, {"type": "Feature", "geometry": {"type": "LineString", "coordinates": [[77.791, 9.0394995], [77.7911888, 9.0401389], [77.7915376, 9.041103], [77.7920192, 9.042086], [77.7925801, 9.0430871], [77.7934349, 9.0444074], [77.793716, 9.04501], [77.7937956, 9.0452303], [77.7940344, 9.0458908], [77.7943735, 9.0471108], [77.7944678, 9.0474501], [77.7945246, 9.0476727], [77.7945448, 9.0477324], [77.7947382, 9.0485102], [77.7949232, 9.0491936], [77.7951632, 9.0501811], [77.7953861, 9.0514048], [77.7954492, 9.0517516], [77.7956515, 9.0529835], [77.7960058, 9.054189], [77.7964819, 9.055715], [77.7972981, 9.0584408], [77.7978539, 9.0598445], [77.7979373, 9.060055], [77.7981012, 9.0607545], [77.7982028, 9.0629768], [77.7982355, 9.0638993], [77.7983501, 9.0649731], [77.7985123, 9.0661393], [77.7991097, 9.0694701], [77.7996453, 9.0728903], [77.7998725, 9.0742956], [77.8001673, 9.0762954], [77.8004293, 9.0781632], [77.8008695, 9.0799431], [77.8010972, 9.0806871], [77.8017479, 9.0821862], [77.8020765, 9.0830035], [77.802684, 9.0849075], [77.8029657, 9.0856647], [77.8037316, 9.0877232], [77.8038663, 9.0881399], [77.8040358, 9.0886643], [77.8044098, 9.0898216], [77.8048794, 9.0913273], [77.8050346, 9.091957], [77.8052797, 9.0935265], [77.805353, 9.093996], [77.8055364, 9.0948391], [77.8058524, 9.0962915], [77.8063103, 9.0977843], [77.8066681, 9.0985985], [77.807369, 9.0999804], [77.8075643, 9.1005646], [77.8076305, 9.1007628], [77.8079939, 9.1022237], [77.8086516, 9.104679], [77.8091371, 9.1063653], [77.8099957, 9.1088887], [77.8104763, 9.1100121], [77.8117758, 9.1124743], [77.8120252, 9.1129468], [77.8120536, 9.112999], [77.8128139, 9.1143224], [77.813088, 9.1147381], [77.8134804, 9.1152384], [77.8141544, 9.1161233], [77.8147105, 9.11705], [77.8156022, 9.1186245], [77.8164869, 9.1201134], [77.8169495, 9.1207098], [77.8175751, 9.1214484], [77.817832, 9.1217752], [77.8198812, 9.12417], [77.8208262, 9.1252757], [77.8224403, 9.1269513], [77.8235734, 9.1281612], [77.8240104, 9.1286278], [77.8241582, 9.1287856], [77.8245454, 9.12922], [77.8247367, 9.1295121], [77.8248829, 9.1298437], [77.8249654, 9.1302816], [77.8249881, 9.1306629], [77.8249737, 9.1312163], [77.8249489, 9.1321675], [77.8249976, 9.1328031], [77.8251997, 9.1338271], [77.8252381, 9.1339964], [77.8254033, 9.1346682]]}, "properties": {"kind": "road", "name": "", "osm_id": 239547207, "osm_type": "way", "highway": "trunk"}}, {"type": "Feature", "geometry": {"type": "LineString", "coordinates": [[77.8241053, 9.1285348], [77.8240104, 9.1286278]]}, "properties": {"kind": "road", "name": "", "osm_id": 239560159, "osm_type": "way", "highway": "trunk_link"}}, {"type": "Feature", "geometry": {"type": "LineString", "coordinates": [[77.8307111, 9.1415394], [77.8319787, 9.1428219], [77.8337713, 9.1446779], [77.8342432, 9.1451854], [77.83461, 9.145649], [77.8354558, 9.1468778], [77.8355283, 9.1469867], [77.8356662, 9.1471936], [77.8361048, 9.1477871], [77.8366385, 9.1483921], [77.8371693, 9.1489181], [77.837509, 9.1491884], [77.8376945, 9.1493068], [77.838769, 9.1500295], [77.839413, 9.1504759], [77.8406366, 9.1514841], [77.8413504, 9.1521041], [77.8416818, 9.1525662], [77.8418108, 9.1528097], [77.8422996, 9.1540328], [77.8426247, 9.1548285]]}, "properties": {"kind": "road", "name": "", "osm_id": 239560509, "osm_type": "way", "highway": "trunk"}}, {"type": "Feature", "geometry": {"type": "LineString", "coordinates": [[77.8254033, 9.1346682], [77.8255567, 9.1350318], [77.826744, 9.1371732]]}, "properties": {"kind": "road", "name": "", "osm_id": 239560510, "osm_type": "way", "highway": "trunk"}}, {"type": "Feature", "geometry": {"type": "LineString", "coordinates": [[77.8255184, 9.1347076], [77.8253739, 9.1340964], [77.8253075, 9.1338546], [77.8251162, 9.1327672], [77.8250824, 9.1321609], [77.8251102, 9.1306634], [77.8250839, 9.1302591], [77.8250069, 9.1298726], [77.824861, 9.1294973], [77.8246807, 9.1291837], [77.8242968, 9.1287323], [77.8241053, 9.1285348], [77.8225435, 9.1269245], [77.8209146, 9.1251947], [77.819981, 9.1241067], [77.8177665, 9.1214895], [77.8170287, 9.1206389], [77.8165955, 9.1200562], [77.8157106, 9.1185683], [77.8148305, 9.1169858], [77.8145494, 9.1165221], [77.8142614, 9.1161002], [77.8135823, 9.1152003], [77.8130701, 9.114522], [77.8125718, 9.1136265], [77.812192, 9.1129275], [77.8121615, 9.1128715], [77.8106869, 9.110158], [77.8105552, 9.1099157], [77.8101271, 9.1088808], [77.8092358, 9.1062549], [77.8087353, 9.104522], [77.8081157, 9.1022203], [77.8077025, 9.1005123], [77.8075165, 9.1000056], [77.8072751, 9.0995255], [77.8067681, 9.0985169], [77.8063945, 9.0976504], [77.806122, 9.0968214], [77.805971, 9.0962395], [77.8053959, 9.093438], [77.8051435, 9.0918942], [77.804999, 9.0913403], [77.8045369, 9.0898552], [77.8043227, 9.0891875], [77.8041485, 9.0886445], [77.8040104, 9.0881739], [77.8032482, 9.0860516], [77.8028366, 9.0849054], [77.8021859, 9.0829474], [77.8018458, 9.0821162], [77.8012235, 9.0807056], [77.8009867, 9.0799351], [77.8005439, 9.0780713], [77.800284, 9.0763065], [77.7997724, 9.0729073], [77.7992488, 9.069437], [77.7986156, 9.0660885], [77.7984514, 9.0647059], [77.7983747, 9.0638713], [77.7983284, 9.0627949], [77.798224, 9.0607487], [77.7979501, 9.0597525], [77.7974217, 9.0584151], [77.7964897, 9.0553578], [77.7960924, 9.0540545], [77.7957644, 9.0528588], [77.7955364, 9.0514563], [77.7950434, 9.0491815], [77.7946573, 9.0476978], [77.7945025, 9.0471062], [77.7941626, 9.0459213], [77.793941, 9.0451939], [77.7935215, 9.0443447], [77.7927088, 9.0430653], [77.7921255, 9.0420406], [77.7916497, 9.0410626], [77.7913639, 9.0402885], [77.7913104, 9.0401437], [77.7911198, 9.03949]]}, "properties": {"kind": "road", "name": "Madura - Tirunelveli", "osm_id": 239560511, "osm_type": "way", "highway": "trunk"}}, {"type": "Feature", "geometry": {"type": "LineString", "coordinates": [[77.8396178, 9.1505235], [77.8388096, 9.1499475], [77.8374063, 9.1489955], [77.8367019, 9.1483103], [77.8361578, 9.1477219], [77.8357457, 9.1471483], [77.8355285, 9.14683], [77.8345827, 9.1454671], [77.8343055, 9.1451015], [77.8331155, 9.1438676], [77.8319712, 9.1426847], [77.8307116, 9.1413969]]}, "properties": {"kind": "road", "name": "Madurai _ Tirunelveli - Kanyakukaru", "osm_id": 239560512, "osm_type": "way", "highway": "trunk"}}, {"type": "Feature", "geometry": {"type": "LineString", "coordinates": [[77.8355285, 9.14683], [77.8354558, 9.1468778]]}, "properties": {"kind": "road", "name": "", "osm_id": 239560556, "osm_type": "way", "highway": "trunk_link"}}, {"type": "Feature", "geometry": {"type": "LineString", "coordinates": [[77.8355945, 9.1467758], [77.8355285, 9.14683]]}, "properties": {"kind": "road", "name": "", "osm_id": 239560557, "osm_type": "way", "highway": "trunk_link"}}, {"type": "Feature", "geometry": {"type": "LineString", "coordinates": [[77.8426247, 9.1548285], [77.8435079, 9.1565553], [77.843981, 9.157338], [77.8444872, 9.1583053], [77.8454742, 9.1602201], [77.8460893, 9.1612439], [77.846431, 9.1617409], [77.847389, 9.1627424], [77.8477089, 9.1631073], [77.8478071, 9.1632102], [77.8481011, 9.1635277], [77.8491112, 9.1645665]]}, "properties": {"kind": "road", "name": "", "osm_id": 239616691, "osm_type": "way", "highway": "trunk"}}, {"type": "Feature", "geometry": {"type": "LineString", "coordinates": [[77.8504778, 9.165699], [77.8495132, 9.1648598], [77.8491858, 9.1644965], [77.848194, 9.1634813], [77.8480219, 9.1633081], [77.8478706, 9.163147], [77.8475149, 9.1627377], [77.8464524, 9.1615865], [77.8461121, 9.1610975], [77.8455249, 9.1600878], [77.8445508, 9.1582278], [77.8440973, 9.1573415], [77.8435782, 9.1564957], [77.8426834, 9.1547396], [77.8423824, 9.1539993], [77.8417969, 9.1525954], [77.8416145, 9.1522928], [77.8413662, 9.1520195], [77.8406377, 9.1513654], [77.8396178, 9.1505235]]}, "properties": {"kind": "road", "name": "Madurai _ Tirunelveli - Kanyakukaru", "osm_id": 239616692, "osm_type": "way", "highway": "trunk"}}, {"type": "Feature", "geometry": {"type": "LineString", "coordinates": [[77.8478071, 9.1632102], [77.8478706, 9.163147], [77.8479208, 9.1630971]]}, "properties": {"kind": "road", "name": "", "osm_id": 239616974, "osm_type": "way", "highway": "trunk_link"}}, {"type": "Feature", "geometry": {"type": "LineString", "coordinates": [[77.8491112, 9.1645665], [77.8503884, 9.1657622]]}, "properties": {"kind": "road", "name": "", "osm_id": 239617202, "osm_type": "way", "highway": "trunk"}}, {"type": "Feature", "geometry": {"type": "LineString", "coordinates": [[77.8523154, 9.1729941], [77.8527558, 9.1704491], [77.8528574, 9.1699352], [77.8529057, 9.1696095], [77.8529357, 9.1693095], [77.8529101, 9.1688713], [77.852844, 9.1684895], [77.8527281, 9.1681594]]}, "properties": {"kind": "road", "name": "Madurai _ Tirunelveli - Kanyakukaru", "osm_id": 239617203, "osm_type": "way", "highway": "trunk"}}, {"type": "Feature", "geometry": {"type": "LineString", "coordinates": [[77.8522034, 9.1729686], [77.8517541, 9.1756536], [77.8515551, 9.1767273], [77.8515461, 9.1767868], [77.8515352, 9.1768592], [77.8514302, 9.1775545], [77.8514316, 9.1781664], [77.8514752, 9.1786585], [77.8516051, 9.1792102], [77.8517567, 9.1796241], [77.851942, 9.1800193], [77.8520825, 9.1802794], [77.8523874, 9.1807076], [77.8526982, 9.1810728], [77.8530798, 9.1814204], [77.8540418, 9.1821953], [77.8547272, 9.1827591]]}, "properties": {"kind": "road", "name": "", "osm_id": 239617556, "osm_type": "way", "highway": "trunk"}}, {"type": "Feature", "geometry": {"type": "LineString", "coordinates": [[77.8526482, 9.1681982], [77.8527294, 9.1685263], [77.8527981, 9.1688907], [77.8528077, 9.1692786], [77.8527823, 9.1696095], [77.8527212, 9.1699239], [77.8526264, 9.1704416], [77.8522034, 9.1729686]]}, "properties": {"kind": "road", "name": "", "osm_id": 239617557, "osm_type": "way", "highway": "trunk"}}, {"type": "Feature", "geometry": {"type": "LineString", "coordinates": [[77.8548268, 9.1826352], [77.8541119, 9.1820593], [77.8531566, 9.1813206], [77.8527302, 9.1809249], [77.8524215, 9.1805676], [77.8521626, 9.1801535], [77.851975, 9.1797979], [77.851835, 9.1794613], [77.8517068, 9.1790958], [77.8515955, 9.1786165], [77.85155, 9.1781009], [77.8515487, 9.1775608], [77.8516545, 9.1768872], [77.8516674, 9.176805], [77.8516784, 9.1767349], [77.8518727, 9.175678], [77.8523154, 9.1729941]]}, "properties": {"kind": "road", "name": "Madurai _ Tirunelveli - Kanyakukaru", "osm_id": 239617558, "osm_type": "way", "highway": "trunk"}}, {"type": "Feature", "geometry": {"type": "LineString", "coordinates": [[77.8514365, 9.1768448], [77.8515352, 9.1768592]]}, "properties": {"kind": "road", "name": "", "osm_id": 239617822, "osm_type": "way", "highway": "trunk_link"}}, {"type": "Feature", "geometry": {"type": "LineString", "coordinates": [[77.8516545, 9.1768872], [77.8517401, 9.1769049]]}, "properties": {"kind": "road", "name": "", "osm_id": 239617909, "osm_type": "way", "highway": "trunk_link"}}, {"type": "Feature", "geometry": {"type": "LineString", "coordinates": [[77.8547272, 9.1827591], [77.8554708, 9.1833708], [77.856644, 9.1843889], [77.8576622, 9.1852498], [77.859361, 9.1866216]]}, "properties": {"kind": "road", "name": "", "osm_id": 239618264, "osm_type": "way", "highway": "trunk"}}, {"type": "Feature", "geometry": {"type": "LineString", "coordinates": [[77.8594328, 9.1864919], [77.8576931, 9.1850798], [77.8555263, 9.1831986], [77.8548268, 9.1826352]]}, "properties": {"kind": "road", "name": "Madurai _ Tirunelveli - Kanyakukaru", "osm_id": 239618265, "osm_type": "way", "highway": "trunk"}}, {"type": "Feature", "geometry": {"type": "LineString", "coordinates": [[77.8679417, 9.1934506], [77.8678876, 9.1934076], [77.8678799, 9.1934014], [77.867848, 9.193376], [77.8652395, 9.1912242], [77.8629332, 9.1893145], [77.8610072, 9.1877483], [77.8594328, 9.1864919]]}, "properties": {"kind": "road", "name": "Madurai _ Tirunelveli - Kanyakukaru", "osm_id": 239618477, "osm_type": "way", "highway": "trunk"}}, {"type": "Feature", "geometry": {"type": "LineString", "coordinates": [[77.8733592, 9.1979076], [77.8718704, 9.1966801], [77.8698047, 9.1949848], [77.8684447, 9.1938508], [77.8682134, 9.193658], [77.8679417, 9.1934506]]}, "properties": {"kind": "road", "name": "Madurai _ Tirunelveli - Kanyakukaru", "osm_id": 239619348, "osm_type": "way", "highway": "trunk"}}, {"type": "Feature", "geometry": {"type": "LineString", "coordinates": [[77.8820706, 9.2060545], [77.8820884, 9.20551], [77.8817947, 9.2044044], [77.8813913, 9.2026045], [77.8813921, 9.2025333], [77.8813977, 9.2020676], [77.8821512, 9.1994907], [77.8822667, 9.1990958], [77.8823977, 9.198648], [77.8830961, 9.1962595], [77.8833665, 9.1957628], [77.8846631, 9.1931008], [77.8847307, 9.1923078], [77.8846382, 9.1922103], [77.8797086, 9.1881869], [77.8794066, 9.1879404], [77.879124, 9.1877098], [77.8788212, 9.1874626], [77.878745, 9.1874077], [77.8773667, 9.1864551], [77.8772222, 9.1863464]]}, "properties": {"kind": "road", "name": "Varanasi - Kanniyakumari Road (Old NH7)", "osm_id": 239619739, "osm_type": "way", "highway": "primary"}}, {"type": "Feature", "geometry": {"type": "LineString", "coordinates": [[77.8921062, 9.2321104], [77.8921923, 9.2317175], [77.8922262, 9.2315553], [77.8922783, 9.230858], [77.892247, 9.2305114], [77.8921806, 9.2302161], [77.8919587, 9.2295101], [77.8913365, 9.2278458], [77.8908454, 9.2261313], [77.8905767, 9.2252443], [77.8904638, 9.2247302], [77.8902609, 9.2236234], [77.8899911, 9.2226637], [77.8891728, 9.2208292], [77.8886985, 9.2197952], [77.8882072, 9.2188072], [77.8877593, 9.2181485], [77.8876977, 9.2180702]]}, "properties": {"kind": "road", "name": "", "osm_id": 239700098, "osm_type": "way", "highway": "trunk"}}, {"type": "Feature", "geometry": {"type": "LineString", "coordinates": [[77.8809013, 9.2045437], [77.8806524, 9.2041789], [77.8801397, 9.2035878], [77.8785302, 9.2021682], [77.8762589, 9.2003077], [77.8746966, 9.1989991], [77.8733592, 9.1979076]]}, "properties": {"kind": "road", "name": "Madurai _ Tirunelveli - Kanyakukaru", "osm_id": 239700099, "osm_type": "way", "highway": "trunk"}}, {"type": "Feature", "geometry": {"type": "LineString", "coordinates": [[77.8962437, 9.1711498], [77.896515, 9.1710799], [77.8966357, 9.1710537], [77.8979252, 9.1707741], [77.8979882, 9.1707604], [77.8989647, 9.1705311], [77.9013863, 9.1699627], [77.9037985, 9.1692921], [77.9054745, 9.1687728], [77.90731, 9.1681532], [77.9087055, 9.1676643], [77.9126251, 9.1662943], [77.9165397, 9.1648649], [77.9192596, 9.163807], [77.9199054, 9.1635558], [77.9260047, 9.1612478], [77.9276034, 9.1606793], [77.9298354, 9.1598856], [77.9347316, 9.1581445], [77.9359582, 9.1576971], [77.9368891, 9.1573827], [77.9372998, 9.1572046], [77.9377418, 9.1569585], [77.9390898, 9.1562258], [77.9399492, 9.1558809], [77.9407187, 9.1556026], [77.9417814, 9.1552027], [77.9428317, 9.1548027], [77.9443184, 9.1542337], [77.9448322, 9.1540732], [77.9463711, 9.1536798], [77.947554, 9.1533638], [77.9482684, 9.153184], [77.9486486, 9.1531089], [77.9547294, 9.1523347], [77.9554296, 9.1522977], [77.956191, 9.1522582], [77.9568574, 9.1522446], [77.9569736, 9.1522509], [77.9577266, 9.1522921], [77.9585979, 9.1523285], [77.9621164, 9.1526611], [77.9623583, 9.152684], [77.9664968, 9.1531433], [77.9679394, 9.1533034], [77.968065, 9.1533173], [77.9690612, 9.1534279], [77.9703105, 9.1535666], [77.9738692, 9.1539615], [77.9764, 9.1531963], [77.9769387, 9.1530335], [77.9771694, 9.1529637], [77.9801565, 9.1511755], [77.9815257, 9.1503559], [77.9824054, 9.1498448], [77.9828078, 9.1496184], [77.9830196, 9.1495098], [77.9832034, 9.1494489], [77.9833952, 9.1494079], [77.9838699, 9.1493483], [77.9842266, 9.1493232], [77.9845512, 9.1493165], [77.9851547, 9.1493788], [77.9852479, 9.1493898], [77.9858675, 9.1494629], [77.9859805, 9.149481], [77.9862447, 9.1495235], [77.9865694, 9.1495485], [77.9867574, 9.149563], [77.9870199, 9.1495803], [77.9872225, 9.1495452], [77.9874922, 9.1494823], [77.9878998, 9.14943], [77.9882353, 9.1494122], [77.988368, 9.1493999], [77.989585, 9.1493912], [77.9897452, 9.1493936], [77.9899126, 9.1493961], [77.9904565, 9.1494393], [77.9913814, 9.149525], [77.9915881, 9.1495442], [77.9936413, 9.1497895], [77.9939554, 9.1498339], [77.9940614, 9.149733], [77.9940993, 9.1495872], [77.9942898, 9.1482337], [77.9943152, 9.1480052], [77.9944279, 9.146992], [77.9944724, 9.1465914], [77.9945338, 9.1460397], [77.9945627, 9.1457798], [77.9959923, 9.1458251], [77.996932, 9.1458745], [77.9976188, 9.1459159]]}, "properties": {"kind": "road", "name": "Paruvakudi - Kovilpatti - Ettayapuram - Vilathikulam - Vembar Road", "osm_id": 504395785, "osm_type": "way", "highway": "primary"}}, {"type": "Feature", "geometry": {"type": "LineString", "coordinates": [[77.8700785, 9.172325], [77.869718, 9.1722348], [77.8692706, 9.1721229], [77.8683071, 9.171981], [77.867812, 9.1720821], [77.8676178, 9.1722392], [77.8676752, 9.1727277], [77.8680822, 9.1734965], [77.8676791, 9.1756554], [77.8675434, 9.1756739], [77.8672558, 9.1756355], [77.8667012, 9.1755494], [77.8666858, 9.1759303], [77.8666688, 9.1764051], [77.8666696, 9.1767197], [77.8666739, 9.1768976], [77.8666878, 9.1770456], [77.866666, 9.1771255], [77.8664102, 9.177351]]}, "properties": {"kind": "road", "name": "Paruvakudi - Kovilpatti - Ettayapuram - Vilathikulam - Vembar Road", "osm_id": 992554604, "osm_type": "way", "highway": "primary"}}, {"type": "Feature", "geometry": {"type": "LineString", "coordinates": [[77.8664102, 9.177351], [77.8659479, 9.1777045]]}, "properties": {"kind": "road", "name": "Paruvakudi - Kovilpatti - Ettayapuram - Vilathikulam - Vembar Road", "osm_id": 992554605, "osm_type": "way", "highway": "primary"}}, {"type": "Feature", "geometry": {"type": "LineString", "coordinates": [[77.8703814, 9.1784197], [77.869957, 9.1780793], [77.8697735, 9.1777396], [77.8693024, 9.1769152], [77.8691768, 9.176698], [77.8687138, 9.1759173], [77.8684128, 9.175697], [77.8679818, 9.1756486], [77.8677855, 9.1756402], [77.8676791, 9.1756554]]}, "properties": {"kind": "road", "name": "Varanasi - Kanniyakumari Road (Old NH7)", "osm_id": 992554606, "osm_type": "way", "highway": "primary"}}, {"type": "Feature", "geometry": {"type": "LineString", "coordinates": [[77.8703361, 9.1723894], [77.8700785, 9.172325]]}, "properties": {"kind": "road", "name": "Paruvakudi - Kovilpatti - Ettayapuram - Vilathikulam - Vembar Road", "osm_id": 992554623, "osm_type": "way", "highway": "primary"}}, {"type": "Feature", "geometry": {"type": "LineString", "coordinates": [[77.8833879, 9.2100774], [77.8819933, 9.2068863]]}, "properties": {"kind": "road", "name": "Madurai _ Tirunelveli - Kanyakukaru", "osm_id": 1145936686, "osm_type": "way", "highway": "trunk"}}, {"type": "Feature", "geometry": {"type": "LineString", "coordinates": [[77.8819933, 9.2068863], [77.8818641, 9.2066031]]}, "properties": {"kind": "road", "name": "Madurai _ Tirunelveli - Kanyakukaru", "osm_id": 1145936687, "osm_type": "way", "highway": "trunk"}}, {"type": "Feature", "geometry": {"type": "LineString", "coordinates": [[77.859361, 9.1866216], [77.8604629, 9.1875031], [77.8610117, 9.1879274], [77.8628659, 9.18945], [77.8638502, 9.1902548], [77.8652611, 9.1914107], [77.8665489, 9.192493], [77.8673133, 9.1931112], [77.8678209, 9.1935217], [77.8678382, 9.1935357], [77.8679059, 9.1935926], [77.8679975, 9.1936696], [77.8682054, 9.1938443], [77.8696736, 9.1950465], [77.8709337, 9.1960762], [77.8718131, 9.1968026], [77.873326, 9.1980511], [77.8746699, 9.1991589], [77.8762374, 9.2004526], [77.8784791, 9.2022909], [77.8800907, 9.2037651], [77.8804021, 9.2040926], [77.8808143, 9.2047118], [77.881027, 9.2051459], [77.88131, 9.2058197], [77.881421, 9.2061144], [77.8816836, 9.2067661], [77.8817401, 9.206892]]}, "properties": {"kind": "road", "name": "", "osm_id": 1145936688, "osm_type": "way", "highway": "trunk"}}, {"type": "Feature", "geometry": {"type": "LineString", "coordinates": [[77.8820538, 9.2064976], [77.8820182, 9.2066225], [77.8818048, 9.2067702], [77.8817401, 9.206892]]}, "properties": {"kind": "road", "name": "", "osm_id": 1145936689, "osm_type": "way", "highway": "primary"}}, {"type": "Feature", "geometry": {"type": "LineString", "coordinates": [[77.8818057, 9.2070398], [77.881868, 9.2068725], [77.8820636, 9.2067073], [77.8821229, 9.206656]]}, "properties": {"kind": "road", "name": "", "osm_id": 1145936690, "osm_type": "way", "highway": "primary"}}, {"type": "Feature", "geometry": {"type": "LineString", "coordinates": [[77.883615, 9.2105971], [77.8833879, 9.2100774]]}, "properties": {"kind": "road", "name": "Madurai _ Tirunelveli - Kanyakukaru", "osm_id": 1145936691, "osm_type": "way", "highway": "trunk"}}, {"type": "Feature", "geometry": {"type": "LineString", "coordinates": [[77.8817401, 9.206892], [77.8818057, 9.2070398], [77.8818419, 9.2071171], [77.8825108, 9.2085579], [77.8835032, 9.2106797], [77.8840521, 9.211715], [77.8852142, 9.2140484]]}, "properties": {"kind": "road", "name": "", "osm_id": 1145936692, "osm_type": "way", "highway": "trunk"}}, {"type": "Feature", "geometry": {"type": "LineString", "coordinates": [[77.8852142, 9.2140484], [77.8852825, 9.2141816]]}, "properties": {"kind": "road", "name": "", "osm_id": 1145936693, "osm_type": "way", "highway": "trunk"}}, {"type": "Feature", "geometry": {"type": "LineString", "coordinates": [[77.8853172, 9.2139694], [77.8841667, 9.2116982], [77.883615, 9.2105971]]}, "properties": {"kind": "road", "name": "", "osm_id": 1145936694, "osm_type": "way", "highway": "trunk"}}, {"type": "Feature", "geometry": {"type": "LineString", "coordinates": [[77.8853792, 9.2140893], [77.8853172, 9.2139694]]}, "properties": {"kind": "road", "name": "", "osm_id": 1145936695, "osm_type": "way", "highway": "trunk"}}, {"type": "Feature", "geometry": {"type": "LineString", "coordinates": [[77.8868154, 9.21712], [77.8869443, 9.2170161]]}, "properties": {"kind": "road", "name": "", "osm_id": 1145936696, "osm_type": "way", "highway": "trunk_link"}}, {"type": "Feature", "geometry": {"type": "LineString", "coordinates": [[77.8852825, 9.2141816], [77.8862583, 9.2160931], [77.886561, 9.2166657], [77.8867641, 9.21705], [77.8868154, 9.21712], [77.887305, 9.2177881], [77.8875286, 9.2180712]]}, "properties": {"kind": "road", "name": "", "osm_id": 1146013034, "osm_type": "way", "highway": "trunk"}}, {"type": "Feature", "geometry": {"type": "LineString", "coordinates": [[77.8875286, 9.2180712], [77.887623, 9.2181908]]}, "properties": {"kind": "road", "name": "", "osm_id": 1146013035, "osm_type": "way", "highway": "trunk"}}, {"type": "Feature", "geometry": {"type": "LineString", "coordinates": [[77.8876001, 9.2179463], [77.887318, 9.2175878], [77.8869965, 9.217096], [77.8869443, 9.2170161], [77.8869106, 9.2169646], [77.8868496, 9.2168713], [77.8863388, 9.2159678], [77.8853792, 9.2140893]]}, "properties": {"kind": "road", "name": "", "osm_id": 1146013036, "osm_type": "way", "highway": "trunk"}}, {"type": "Feature", "geometry": {"type": "LineString", "coordinates": [[77.8876977, 9.2180702], [77.8876001, 9.2179463]]}, "properties": {"kind": "road", "name": "", "osm_id": 1146013037, "osm_type": "way", "highway": "trunk"}}, {"type": "Feature", "geometry": {"type": "LineString", "coordinates": [[77.887623, 9.2181908], [77.8877595, 9.2183637], [77.8881589, 9.2189774], [77.8885828, 9.2198569], [77.8890826, 9.220941], [77.8896126, 9.2220987], [77.8899115, 9.2227516], [77.890151, 9.2236358], [77.89037, 9.2247677], [77.8904825, 9.2253246], [77.8907409, 9.2261812], [77.8912377, 9.2279038], [77.8918559, 9.2295605], [77.8920916, 9.2302512], [77.8921723, 9.2308796], [77.8921266, 9.2315212], [77.8919913, 9.2320592]]}, "properties": {"kind": "road", "name": "", "osm_id": 1146013038, "osm_type": "way", "highway": "trunk"}}, {"type": "Feature", "geometry": {"type": "LineString", "coordinates": [[77.8564811, 9.1843949], [77.8562432, 9.1845514]]}, "properties": {"kind": "road", "name": "Paruvakudi - Kovilpatti - Ettayapuram - Vilathikulam - Vembar Road", "osm_id": 1189407125, "osm_type": "way", "highway": "primary"}}, {"type": "Feature", "geometry": {"type": "LineString", "coordinates": [[77.8667012, 9.1755494], [77.8663373, 9.1754386], [77.8652119, 9.175057], [77.8649552, 9.1749572], [77.8647563, 9.1748801]]}, "properties": {"kind": "road", "name": "Varanasi - Kanniyakumari Road (Old NH7)", "osm_id": 1190101272, "osm_type": "way", "highway": "primary"}}, {"type": "Feature", "geometry": {"type": "LineString", "coordinates": [[77.8588119, 9.1715259], [77.8589754, 9.1716761], [77.8594635, 9.172023], [77.8599222, 9.1722242], [77.8604613, 9.1724202], [77.8607295, 9.1725791], [77.8612525, 9.1728964], [77.8622706, 9.1735142], [77.8624837, 9.1736435], [77.8630143, 9.1739497], [77.8630711, 9.1739824], [77.8646134, 9.174843], [77.8647563, 9.1748801]]}, "properties": {"kind": "road", "name": "", "osm_id": 1190101273, "osm_type": "way", "highway": "primary"}}, {"type": "Feature", "geometry": {"type": "LineString", "coordinates": [[77.8588119, 9.1715259], [77.8582624, 9.1711842]]}, "properties": {"kind": "road", "name": "Varanasi - Kanniyakumari Road (Old NH7)", "osm_id": 1190101274, "osm_type": "way", "highway": "primary"}}, {"type": "Feature", "geometry": {"type": "LineString", "coordinates": [[77.8630143, 9.1739497], [77.8630435, 9.1739035]]}, "properties": {"kind": "road", "name": "", "osm_id": 1190101275, "osm_type": "way", "highway": "primary_link"}}, {"type": "Feature", "geometry": {"type": "LineString", "coordinates": [[77.8562432, 9.1845514], [77.8562133, 9.1846213]]}, "properties": {"kind": "road", "name": "Paruvakudi - Kovilpatti - Ettayapuram - Vilathikulam - Vembar Road", "osm_id": 1213546633, "osm_type": "way", "highway": "primary"}}, {"type": "Feature", "geometry": {"type": "LineString", "coordinates": [[77.8563263, 9.1845949], [77.8564869, 9.1845016], [77.8565562, 9.1844506], [77.8565876, 9.1844274], [77.8568329, 9.1842572], [77.8568812, 9.1842205], [77.8570715, 9.1840633], [77.8571255, 9.1840138], [77.8572654, 9.1838938]]}, "properties": {"kind": "road", "name": "Paruvakudi - Kovilpatti - Ettayapuram - Vilathikulam - Vembar Road", "osm_id": 1213546634, "osm_type": "way", "highway": "primary"}}, {"type": "Feature", "geometry": {"type": "LineString", "coordinates": [[77.8720224, 9.1804344], [77.8717019, 9.1799721], [77.8715807, 9.1797507], [77.8714359, 9.1795087], [77.8712211, 9.1791952], [77.8710987, 9.1790362], [77.8704794, 9.1784529], [77.8703814, 9.1784197]]}, "properties": {"kind": "road", "name": "", "osm_id": 1247210397, "osm_type": "way", "highway": "primary"}}, {"type": "Feature", "geometry": {"type": "LineString", "coordinates": [[77.8730181, 9.1814172], [77.8729878, 9.1813566], [77.8724564, 9.1809332], [77.8721894, 9.1806483], [77.8721044, 9.1805435], [77.8720224, 9.1804344]]}, "properties": {"kind": "road", "name": "", "osm_id": 1247210398, "osm_type": "way", "highway": "primary"}}, {"type": "Feature", "geometry": {"type": "LineString", "coordinates": [[77.8747361, 9.18269], [77.8745471, 9.1825389], [77.8737981, 9.1819401], [77.8731863, 9.1815258], [77.8731248, 9.1814856], [77.8730181, 9.1814172]]}, "properties": {"kind": "road", "name": "Varanasi - Kanniyakumari Road (Old NH7)", "osm_id": 1247210399, "osm_type": "way", "highway": "primary"}}, {"type": "Feature", "geometry": {"type": "LineString", "coordinates": [[77.8703814, 9.1784197], [77.8704434, 9.1785143], [77.871049, 9.1790744], [77.8718101, 9.1801978], [77.8720701, 9.180608], [77.8724446, 9.1809904], [77.8729404, 9.1813921], [77.8730181, 9.1814172]]}, "properties": {"kind": "road", "name": "Varanasi - Kanniyakumari Road (Old NH7)", "osm_id": 1247210400, "osm_type": "way", "highway": "primary"}}, {"type": "Feature", "geometry": {"type": "LineString", "coordinates": [[77.8818641, 9.2066031], [77.8814532, 9.2056407], [77.8811431, 9.2049862], [77.8809013, 9.2045437]]}, "properties": {"kind": "road", "name": "Madurai _ Tirunelveli - Kanyakukaru", "osm_id": 1293663428, "osm_type": "way", "highway": "trunk"}}, {"type": "Feature", "geometry": {"type": "LineString", "coordinates": [[77.8820706, 9.2060545], [77.882021, 9.206095], [77.8819798, 9.2061184], [77.8819354, 9.2061329], [77.8818902, 9.2061331]]}, "properties": {"kind": "road", "name": "", "osm_id": 1293663429, "osm_type": "way", "highway": "primary_link"}}, {"type": "Feature", "geometry": {"type": "LineString", "coordinates": [[77.8527281, 9.1681594], [77.8526214, 9.1679281]]}, "properties": {"kind": "road", "name": "Madurai _ Tirunelveli - Kanyakukaru", "osm_id": 1350983154, "osm_type": "way", "highway": "trunk"}}, {"type": "Feature", "geometry": {"type": "LineString", "coordinates": [[77.8526214, 9.1679281], [77.8524413, 9.16761], [77.8521903, 9.167265], [77.8519446, 9.1670259], [77.851063, 9.1662493], [77.8504778, 9.165699]]}, "properties": {"kind": "road", "name": "Madurai _ Tirunelveli - Kanyakukaru", "osm_id": 1350983155, "osm_type": "way", "highway": "trunk"}}, {"type": "Feature", "geometry": {"type": "LineString", "coordinates": [[77.8525368, 9.1679565], [77.8526482, 9.1681982]]}, "properties": {"kind": "road", "name": "", "osm_id": 1350983156, "osm_type": "way", "highway": "trunk"}}, {"type": "Feature", "geometry": {"type": "LineString", "coordinates": [[77.8503884, 9.1657622], [77.8510163, 9.1663184], [77.8518514, 9.1670905], [77.85223, 9.1674724], [77.8525368, 9.1679565]]}, "properties": {"kind": "road", "name": "", "osm_id": 1350983157, "osm_type": "way", "highway": "trunk"}}, {"type": "Feature", "geometry": {"type": "LineString", "coordinates": [[77.8354481, 9.1470482], [77.8355283, 9.1469867]]}, "properties": {"kind": "road", "name": "", "osm_id": 1350983158, "osm_type": "way", "highway": "trunk_link"}}, {"type": "Feature", "geometry": {"type": "LineString", "coordinates": [[77.826744, 9.1371732], [77.8269157, 9.1374914]]}, "properties": {"kind": "road", "name": "", "osm_id": 1350983159, "osm_type": "way", "highway": "trunk"}}, {"type": "Feature", "geometry": {"type": "LineString", "coordinates": [[77.8270134, 9.1374421], [77.82683, 9.1371425], [77.8268054, 9.137103]]}, "properties": {"kind": "road", "name": "Madurai _ Tirunelveli - Kanyakukaru", "osm_id": 1350983160, "osm_type": "way", "highway": "trunk"}}, {"type": "Feature", "geometry": {"type": "LineString", "coordinates": [[77.8710555, 9.1725571], [77.8711422, 9.1726255], [77.8715088, 9.1727199], [77.8731328, 9.1731381], [77.8733788, 9.1732014], [77.874297, 9.1734577], [77.8752868, 9.1737349], [77.8753747, 9.1737595], [77.8765833, 9.1740959], [77.8777167, 9.1744122], [77.8781575, 9.174544], [77.8786056, 9.174678], [77.8799742, 9.1750872], [77.881623, 9.1756036], [77.881949, 9.1757057], [77.8822063, 9.1757743], [77.8824408, 9.1758122], [77.8827273, 9.1758012], [77.8843975, 9.1757658], [77.8849342, 9.1757355], [77.885223, 9.1757075], [77.8853431, 9.1756782], [77.8855692, 9.175623], [77.8868785, 9.175247], [77.8869807, 9.1752176], [77.8870642, 9.1751936], [77.8875616, 9.175057], [77.8879072, 9.1749182], [77.8880424, 9.1748513], [77.8886355, 9.1745581], [77.8887443, 9.1745043], [77.889508, 9.1740875], [77.8896532, 9.1740083], [77.8909251, 9.1732679], [77.8918349, 9.1727658], [77.8920935, 9.1726231], [77.8923412, 9.1724326], [77.8925207, 9.1722748], [77.8927081, 9.1721293], [77.8929281, 9.1720146], [77.893188, 9.1719147], [77.8943813, 9.1716279], [77.8961679, 9.1712111], [77.8962437, 9.1711498]]}, "properties": {"kind": "road", "name": "Paruvakudi - Kovilpatti - Ettayapuram - Vilathikulam - Vembar Road", "osm_id": 1363533370, "osm_type": "way", "highway": "primary"}}, {"type": "Feature", "geometry": {"type": "LineString", "coordinates": [[77.8703361, 9.1723894], [77.8710555, 9.1725571]]}, "properties": {"kind": "road", "name": "Paruvakudi - Kovilpatti - Ettayapuram - Vilathikulam - Vembar Road", "osm_id": 1363533371, "osm_type": "way", "highway": "primary"}}, {"type": "Feature", "geometry": {"type": "LineString", "coordinates": [[77.8962437, 9.1711498], [77.8961582, 9.1711319], [77.8938748, 9.1716588], [77.8936563, 9.1717092], [77.8933642, 9.1717863], [77.8930226, 9.1718818], [77.8928093, 9.1719707], [77.8925835, 9.1721255], [77.8922852, 9.1723614], [77.8920921, 9.1725093], [77.8920034, 9.1725826], [77.8917634, 9.1727124], [77.8913202, 9.1729521], [77.8908291, 9.1732339], [77.8899801, 9.1737209], [77.8894668, 9.1740154], [77.8882237, 9.1746622], [77.8880143, 9.1747654], [77.8877912, 9.1748755], [77.8874381, 9.1749945], [77.8868677, 9.1751623], [77.8866006, 9.1752409], [77.8860408, 9.1754056], [77.8855564, 9.1755328], [77.8853256, 9.1755827], [77.8850927, 9.1756331], [77.8845758, 9.1756908], [77.8839046, 9.1756966], [77.8825968, 9.1757353], [77.8824055, 9.1757225], [77.8822441, 9.1756947], [77.8820882, 9.1756532], [77.8819755, 9.1756231], [77.8816315, 9.1755248], [77.8812045, 9.1754027], [77.879117, 9.1747591], [77.8786291, 9.1746176], [77.8767283, 9.1740664], [77.8766056, 9.1740296], [77.8758865, 9.1738139], [77.8753923, 9.1736658], [77.8753115, 9.1736415], [77.8751636, 9.1735971], [77.8743176, 9.1733696], [77.873162, 9.1730587], [77.8729482, 9.1730012], [77.8715381, 9.1726355], [77.8711449, 9.1725335], [77.8710555, 9.1725571]]}, "properties": {"kind": "road", "name": "Paruvakudi - Kovilpatti - Ettayapuram - Vilathikulam - Vembar Road", "osm_id": 1363533372, "osm_type": "way", "highway": "primary"}}, {"type": "Feature", "geometry": {"type": "LineString", "coordinates": [[77.8786291, 9.1746176], [77.8786056, 9.174678]]}, "properties": {"kind": "road", "name": "", "osm_id": 1363533373, "osm_type": "way", "highway": "primary_link"}}, {"type": "Feature", "geometry": {"type": "LineString", "coordinates": [[77.8743176, 9.1733696], [77.874297, 9.1734577]]}, "properties": {"kind": "road", "name": "", "osm_id": 1363533374, "osm_type": "way", "highway": "primary_link"}}], "properties": {"source": "OpenStreetMap via Overpass", "retrieved": "2026-09-18"}}