{"type": "FeatureCollection", "features": [{"type": "Feature", "geometry": {"type": "Polygon", "coordinates": [[[77.8713266, 9.1854211], [77.8704472, 9.18518], [77.869773, 9.1850642], [77.8699684, 9.1847362], [77.8718836, 9.184389], [77.8731734, 9.1842057], [77.8738379, 9.1843118], [77.8752743, 9.1848327], [77.875479, 9.1851026], [77.8753103, 9.1861277], [77.875499, 9.18627], [77.8757629, 9.1866076], [77.8760756, 9.1868391], [77.8755381, 9.1868005], [77.874815, 9.1865208], [77.874219, 9.1862024], [77.8736131, 9.1861446], [77.8725481, 9.1858166], [77.8717957, 9.1855947], [77.8713266, 9.1854211]]]}, "properties": {"kind": "waterbody", "name": "", "osm_id": 93420227, "tag": "water"}}, {"type": "Feature", "geometry": {"type": "Polygon", "coordinates": [[[77.8692242, 9.1738587], [77.8692937, 9.1734482], [77.8696879, 9.1735799], [77.8696654, 9.1736838], [77.8696066, 9.173956], [77.8692242, 9.1738587]]]}, "properties": {"kind": "waterbody", "name": "", "osm_id": 93420243, "tag": "reservoir"}}, {"type": "Feature", "geometry": {"type": "Polygon", "coordinates": [[[77.8714243, 9.1825658], [77.8720693, 9.1827491], [77.8723135, 9.1830385], [77.8721083, 9.1833279], [77.8710139, 9.1838584], [77.8703104, 9.1841864], [77.8698707, 9.1843793], [77.8691769, 9.1844951], [77.868659, 9.1846012], [77.8680337, 9.1845819], [77.8667145, 9.1842732], [77.8656006, 9.1840899], [77.8649947, 9.1840321], [77.8644671, 9.1838777], [77.8640665, 9.1836462], [77.8641055, 9.1830289], [77.8647798, 9.182971], [77.8650045, 9.1827105], [77.8651315, 9.1822765], [77.8657178, 9.1824211], [77.8659328, 9.1828359], [77.8666852, 9.1829517], [77.8671738, 9.1827973], [77.8674962, 9.1825562], [77.8679359, 9.1825273], [77.8684343, 9.182643], [77.869343, 9.1826719], [77.8697632, 9.1827684], [77.8707697, 9.1825658], [77.8714243, 9.1825658]]]}, "properties": {"kind": "waterbody", "name": "", "osm_id": 93420251, "tag": "water"}}, {"type": "Feature", "geometry": {"type": "LineString", "coordinates": [[77.8676332, 9.1755996], [77.8672652, 9.1755222], [77.8672688, 9.1754823], [77.8673142, 9.1751291], [77.8673789, 9.1747034], [77.8673063, 9.1744727], [77.867196, 9.1743961], [77.867078, 9.1743421], [77.8668641, 9.173907], [77.8665306, 9.1735391], [77.866407, 9.1731095], [77.8662137, 9.1725692], [77.8667664, 9.171853]]}, "properties": {"kind": "line", "name": "", "osm_id": 93420261, "tag": "canal"}}, {"type": "Feature", "geometry": {"type": "Polygon", "coordinates": [[[77.8753584, 9.1928911], [77.875378, 9.1930455], [77.8764919, 9.193875], [77.8775668, 9.1945213], [77.8784951, 9.1949939], [77.8791791, 9.1955437], [77.8796286, 9.1956981], [77.8802051, 9.1955245], [77.8813288, 9.1951772], [77.881876, 9.1950807], [77.8823255, 9.1948396], [77.8829606, 9.1942801], [77.8840355, 9.1934313], [77.884485, 9.1928236], [77.8846511, 9.1924185], [77.884397, 9.1922931], [77.8841821, 9.1924088], [77.8835176, 9.1925246], [77.8819639, 9.1927464], [77.8809575, 9.1930744], [77.8809086, 9.1934409], [77.8801367, 9.1938364], [77.8795113, 9.1938364], [77.8788664, 9.19374], [77.8784853, 9.1938268], [77.8776645, 9.1932287], [77.8772737, 9.1932963], [77.8771173, 9.1935085], [77.8766581, 9.1934216], [77.8761402, 9.1931709], [77.8756907, 9.1929779], [77.8753584, 9.1928911]]]}, "properties": {"kind": "waterbody", "name": "", "osm_id": 93420268, "tag": "water"}}, {"type": "Feature", "geometry": {"type": "LineString", "coordinates": [[77.8669417, 9.2251271], [77.8677195, 9.2252012], [77.8692931, 9.2251412], [77.8700691, 9.2252594], [77.8705198, 9.2250688], [77.8708094, 9.2251006], [77.8719628, 9.2250635], [77.8729176, 9.2250847], [77.8741568, 9.2257307], [77.874709, 9.2259209], [77.874976, 9.2260129], [77.8752458, 9.2260643], [77.8757554, 9.2265038], [77.8761256, 9.2276051], [77.8765386, 9.2283147], [77.8771555, 9.2286482], [77.8781855, 9.2291248], [77.8788185, 9.2291618], [77.880165, 9.2287859], [77.8821659, 9.2285317], [77.8834426, 9.2284417], [77.8844029, 9.22886], [77.8857949, 9.2302526], [77.8866291, 9.2303214], [77.8890485, 9.231068], [77.8909421, 9.2316134], [77.8916395, 9.2321906], [77.89253, 9.232818], [77.8933319, 9.2331913], [77.8943244, 9.2333131], [77.8950083, 9.2336149], [77.8963601, 9.2349386], [77.8971326, 9.2363471], [77.8979909, 9.2366753], [77.9001957, 9.2374325], [77.901687, 9.238232], [77.9027063, 9.2388568], [77.903173, 9.2387297], [77.9038006, 9.2380414], [77.9040606, 9.2380548], [77.9047286, 9.2380891], [77.905308, 9.2383379], [77.9053908, 9.2383596], [77.9058302, 9.2384747], [77.906177, 9.2385656], [77.9066169, 9.2387933], [77.9083657, 9.2394869], [77.9088228, 9.2394927], [77.9091972, 9.2394975], [77.9100233, 9.2393439], [77.9105115, 9.239524], [77.9109675, 9.2395716], [77.91152, 9.2397675], [77.9123408, 9.2400905], [77.9130971, 9.2402017], [77.9149265, 9.240287], [77.915141, 9.240297], [77.9155272, 9.24044], [77.9161602, 9.2410912], [77.9175228, 9.2415413], [77.9182148, 9.2418643], [77.918357, 9.2418938], [77.9185715, 9.2419384], [77.9189765, 9.2423832], [77.9198456, 9.2430927], [77.920838, 9.2433839], [77.9216695, 9.2433468], [77.923606, 9.2430397], [77.925092, 9.2433574], [77.9268166, 9.2441128], [77.9273665, 9.2442734], [77.9282248, 9.2448876], [77.9292386, 9.2455286], [77.9295981, 9.2457559], [77.9308855, 9.246153], [77.9329401, 9.2464707], [77.9354354, 9.247173], [77.9372585, 9.2480167], [77.939254, 9.2485409], [77.9410404, 9.2481862], [77.9448941, 9.2478439], [77.9460669, 9.2477997], [77.9472041, 9.247895], [77.9481161, 9.247842], [77.9498273, 9.2474767], [77.9506588, 9.2474767], [77.9525805, 9.2477427], [77.9542154, 9.2483874], [77.9565221, 9.2490016], [77.9576111, 9.2491022], [77.9587644, 9.249081], [77.9598319, 9.2491604], [77.9609477, 9.2495681], [77.9621494, 9.2503517], [77.9635227, 9.2510347], [77.9649091, 9.2515747], [77.9663014, 9.2522101], [77.9676747, 9.2525331], [77.9701316, 9.2527608], [77.9724759, 9.2526972], [77.9744768, 9.2526072], [77.9754692, 9.2524431], [77.9777757, 9.2518461], [77.9861371, 9.2504987], [77.9917488, 9.2505246], [77.9928617, 9.2497441], [77.9941564, 9.2492601], [77.9968303, 9.249711], [77.9986918, 9.2502617], [77.9998612, 9.2511406], [78.0007142, 9.2516912], [78.0017012, 9.2518448], [78.0031657, 9.2516224], [78.0046892, 9.2512094], [78.0054724, 9.2513842], [78.0075431, 9.2523372], [78.0095708, 9.2533855], [78.0110085, 9.2541056], [78.0131328, 9.254508], [78.0144095, 9.2547304], [78.0152625, 9.2553816], [78.0163085, 9.2565305], [78.0178992, 9.2570488]]}, "properties": {"kind": "line", "name": "Uppar River", "osm_id": 131609111, "tag": "river"}}, {"type": "Feature", "geometry": {"type": "LineString", "coordinates": [[77.8782611, 9.1334581], [77.8790406, 9.1311491], [77.8814223, 9.1277689], [77.8815351, 9.1276088], [77.8854327, 9.1234527], [77.8867297, 9.1179471], [77.88813, 9.117625], [77.8895223, 9.1171379], [77.8908589, 9.1170829], [77.8921239, 9.1168237], [77.8936674, 9.1159596], [77.8953461, 9.1146399], [77.8963167, 9.1135479], [77.8975817, 9.1125974], [77.8993964, 9.111786], [77.9004569, 9.1114008], [77.9010833, 9.1107551], [77.9025098, 9.1096777], [77.904433, 9.1084623], [77.9053451, 9.1074748], [77.9063419, 9.1067688], [77.9079738, 9.1058634], [77.9097922, 9.1047277], [77.9105848, 9.1032392], [77.9133358, 9.100354], [77.914688, 9.0979293], [77.9152008, 9.0967016], [77.9162266, 9.0936322], [77.9168172, 9.0914376], [77.9187289, 9.0890282], [77.9195215, 9.0886599], [77.9212156, 9.0882915], [77.9221481, 9.0877083], [77.9231428, 9.0864038], [77.9238578, 9.0848691], [77.9245727, 9.0840711], [77.9258472, 9.0837335], [77.9281318, 9.0839176], [77.930401, 9.0829201], [77.93248, 9.082107], [77.9333837, 9.0821031], [77.9342088, 9.0823522], [77.9351697, 9.0828901], [77.9359213, 9.0836817], [77.9364166, 9.0841779], [77.9368016, 9.084355], [77.9375901, 9.0844139], [77.9409541, 9.0849919], [77.9437516, 9.0850993], [77.9452126, 9.0846696], [77.9475284, 9.0838102], [77.9494832, 9.0841853], [77.9508941, 9.0842313], [77.9521841, 9.0839627], [77.953443, 9.0831953], [77.9547252, 9.0813537], [77.955409, 9.0801873], [77.9563649, 9.0794659], [77.9575228, 9.0788674], [77.9587195, 9.0789978], [77.9599939, 9.0793508], [77.9616647, 9.0792204], [77.9629236, 9.0790132], [77.9641281, 9.0788367], [77.9648353, 9.0788904], [77.9656046, 9.0787139], [77.9660631, 9.0786525], [77.9665527, 9.07876], [77.9682079, 9.0793739], [77.9693036, 9.0795273], [77.9699875, 9.0795887], [77.9706092, 9.079512], [77.9713397, 9.079136], [77.9725286, 9.0783072], [77.9729871, 9.0778698], [77.9734301, 9.0770948], [77.974044, 9.0767571], [77.9746734, 9.076596], [77.9758702, 9.076665], [77.9764919, 9.0765039], [77.9767949, 9.0762276], [77.9770203, 9.0756137], [77.9772923, 9.0748694], [77.9775176, 9.0745855], [77.9781937, 9.0743629], [77.9791573, 9.0743245], [77.9798489, 9.0743552], [77.9806494, 9.0746162], [77.9813021, 9.0747082], [77.9826077, 9.0747466], [77.983649, 9.0744166], [77.984294, 9.0742632], [77.9852032, 9.0743629], [77.9859337, 9.0742555], [77.986703, 9.0740253], [77.9874723, 9.0736032], [77.9882579, 9.0733583], [77.9886309, 9.0733506], [77.9892798, 9.0734466], [77.9898043, 9.0736499], [77.9900879, 9.0736538], [77.9906785, 9.073389], [77.9917743, 9.0727904], [77.9926096, 9.0726024], [77.9967269, 9.070689], [78.003179, 9.062991], [78.0107793, 9.0577949], [78.0151746, 9.0541853], [78.0156894, 9.0537136], [78.0158423, 9.0534979], [78.0161952, 9.0524649], [78.0162591, 9.0521072], [78.0162682, 9.0513228], [78.0164031, 9.051097], [78.0166232, 9.0509002], [78.0171394, 9.0506375], [78.0184391, 9.0501122], [78.0197579, 9.0497704], [78.0203788, 9.0496347], [78.0208924, 9.0496691], [78.0216097, 9.049358], [78.0224998, 9.048761], [78.0228625, 9.048506], [78.0230823, 9.0479796], [78.0233406, 9.0475183], [78.0242033, 9.0468346], [78.0254012, 9.0461291], [78.0264067, 9.0455919], [78.0268244, 9.0452283], [78.0275222, 9.0443004], [78.0282476, 9.0434755], [78.028852, 9.0431879], [78.0291048, 9.0428515], [78.0291419, 9.0426594], [78.029234, 9.0421288], [78.029422, 9.0415427], [78.0295342, 9.0409473], [78.0299636, 9.039559], [78.0302686, 9.038965], [78.0308465, 9.0384107], [78.0315558, 9.037797], [78.0318785, 9.0374253], [78.0320519, 9.0370168], [78.0320217, 9.036268]]}, "properties": {"kind": "line", "name": "", "osm_id": 131609128, "tag": "stream"}}, {"type": "Feature", "geometry": {"type": "LineString", "coordinates": [[77.8680166, 9.1831029], [77.8679359, 9.1825273], [77.8680411, 9.1819373], [77.8679756, 9.1816648], [77.8680943, 9.1809922], [77.8681866, 9.1803116], [77.8684049, 9.1799154], [77.868657, 9.179602], [77.8691955, 9.1787798], [77.8694912, 9.1782108], [77.8695389, 9.177786], [77.8695324, 9.1775781], [77.8691481, 9.1768698], [77.869185, 9.176841]]}, "properties": {"kind": "line", "name": "", "osm_id": 674358407, "tag": "canal"}}, {"type": "Feature", "geometry": {"type": "Polygon", "coordinates": [[[77.856017, 9.1783891], [77.8560136, 9.1781511], [77.8562105, 9.1782416], [77.8564177, 9.1782818], [77.8567234, 9.178312], [77.8568117, 9.1783154], [77.856866, 9.1782349], [77.857063, 9.1782316], [77.8571513, 9.1782785], [77.85726, 9.1782181], [77.8576404, 9.1782148], [77.857817, 9.1782584], [77.8578408, 9.1784026], [77.8580989, 9.1784663], [77.8581125, 9.1786875], [77.8584521, 9.1787948], [77.8588325, 9.1788988], [77.8590397, 9.1789357], [77.8590771, 9.1790094], [77.8590193, 9.1797839], [77.8592367, 9.1798175], [77.8596307, 9.1798074], [77.8599262, 9.1797806], [77.8603303, 9.1796934], [77.8606292, 9.1796129], [77.8609587, 9.1794956], [77.8612032, 9.1793849], [77.8612915, 9.1793715], [77.8608602, 9.1801829], [77.8606734, 9.1806221], [77.8605273, 9.1808468], [77.8604424, 9.1809507], [77.8603032, 9.180944], [77.8600382, 9.1808636], [77.8597122, 9.1807797], [77.8594677, 9.1807429], [77.8592435, 9.1806624], [77.8591348, 9.1805618], [77.858914, 9.1804981], [77.8587035, 9.1804277], [77.8584895, 9.1803305], [77.8583027, 9.1801628], [77.8581465, 9.1800689], [77.8578849, 9.1799348], [77.857688, 9.1798812], [77.8574366, 9.1797202], [77.8571989, 9.1795425], [77.8569951, 9.1793313], [77.8569068, 9.1791637], [77.8568049, 9.178996], [77.8565196, 9.1787915], [77.856112, 9.17853], [77.856017, 9.1783891]]]}, "properties": {"kind": "waterbody", "name": "", "osm_id": 905443489, "tag": "water"}}, {"type": "Feature", "geometry": {"type": "LineString", "coordinates": [[77.8294954, 9.2280287], [77.8311932, 9.227351], [77.8318906, 9.2270386], [77.8328133, 9.2270915], [77.8335053, 9.2269856], [77.8344065, 9.2264826], [77.8354096, 9.2257254], [77.8366113, 9.2258472], [77.8381562, 9.2255877], [77.8391594, 9.2252383], [77.8400284, 9.2250953], [77.8420347, 9.2250106], [77.8425389, 9.2248146], [77.8443414, 9.2247617], [77.8455806, 9.2246823], [77.8464496, 9.2248411], [77.8470182, 9.2247299], [77.8479516, 9.2242957], [77.8500384, 9.2241898], [77.8519052, 9.2242534], [77.8533482, 9.2243699], [77.8543299, 9.224031], [77.8557301, 9.2244599], [77.8561485, 9.2247935], [77.8566205, 9.2251959], [77.8569478, 9.2252118], [77.8580314, 9.2251535], [77.858482, 9.2255824], [77.8587556, 9.2256724], [77.8592062, 9.225503], [77.8601235, 9.2254818], [77.8611535, 9.225593]]}, "properties": {"kind": "line", "name": "", "osm_id": 906807466, "tag": "stream"}}, {"type": "Feature", "geometry": {"type": "LineString", "coordinates": [[77.8570175, 9.2274198], [77.8574037, 9.2270174], [77.8579134, 9.2267791], [77.8587717, 9.2268321], [77.859748, 9.2267156], [77.8606492, 9.2263714], [77.8611535, 9.225593], [77.8618348, 9.2251271], [77.8628486, 9.2245711], [77.8643668, 9.224857], [77.8659332, 9.2251694], [77.8669417, 9.2251271]]}, "properties": {"kind": "line", "name": "", "osm_id": 906807467, "tag": "stream"}}, {"type": "Feature", "geometry": {"type": "LineString", "coordinates": [[77.8625429, 9.2207692], [77.8635058, 9.2203668], [77.863774, 9.2203668], [77.8650212, 9.2208486], [77.865445, 9.2210499], [77.8657427, 9.2215158], [77.8659721, 9.2216436], [77.8659224, 9.2219871], [77.8659707, 9.2223101], [77.8660941, 9.2228025], [77.8661585, 9.223385], [77.8662175, 9.2237027], [77.8664657, 9.2241909], [77.8665846, 9.2244248], [77.8667134, 9.2246782], [77.8669417, 9.2251271]]}, "properties": {"kind": "line", "name": "", "osm_id": 906807468, "tag": "stream"}}, {"type": "Feature", "geometry": {"type": "Polygon", "coordinates": [[[77.8358439, 9.2321666], [77.8361455, 9.2315713], [77.8354477, 9.2307308], [77.8349923, 9.2303572], [77.8346967, 9.2301179], [77.8344365, 9.229937], [77.8337978, 9.2295809], [77.833443, 9.2294117], [77.8330113, 9.2292366], [77.8325468, 9.2290092], [77.8319343, 9.2287743], [77.8313335, 9.2285933], [77.8309083, 9.228497], [77.8304557, 9.2283584], [77.830013, 9.2283067], [77.8297475, 9.228222], [77.8292486, 9.2277746], [77.8289241, 9.2275839], [77.8286532, 9.2274966], [77.8282384, 9.2275159], [77.8270336, 9.2277212], [77.8261302, 9.2277631], [77.8254832, 9.2277949], [77.8239701, 9.2279039], [77.8235354, 9.2279676], [77.8235983, 9.228042], [77.8238784, 9.2283728], [77.8250433, 9.2282531], [77.8260988, 9.2282414], [77.8266281, 9.2281918], [77.8276866, 9.2280634], [77.8286978, 9.2279759], [77.8295641, 9.2284632], [77.8303092, 9.2289448], [77.8317846, 9.2294964], [77.8329347, 9.2300538], [77.8350961, 9.2315188], [77.8354106, 9.2318072], [77.8355958, 9.231977], [77.8358439, 9.2321666]]]}, "properties": {"kind": "waterbody", "name": "", "osm_id": 914153124, "tag": "reservoir"}}, {"type": "Feature", "geometry": {"type": "LineString", "coordinates": [[77.8702468, 9.1722478], [77.8698117, 9.1721102], [77.8698462, 9.1716062], [77.869315, 9.1712282], [77.8689425, 9.1711669], [77.8683699, 9.171092]]}, "properties": {"kind": "line", "name": "", "osm_id": 992554616, "tag": "canal"}}, {"type": "Feature", "geometry": {"type": "LineString", "coordinates": [[77.8698053, 9.1739923], [77.8696654, 9.1736838], [77.8695515, 9.1736265]]}, "properties": {"kind": "line", "name": "", "osm_id": 992554617, "tag": "canal"}}, {"type": "Feature", "geometry": {"type": "LineString", "coordinates": [[77.8690709, 9.1766799], [77.8685805, 9.1759535], [77.8683099, 9.1757379], [77.8677994, 9.1756933]]}, "properties": {"kind": "line", "name": "", "osm_id": 1050199243, "tag": "canal"}}, {"type": "Feature", "geometry": {"type": "LineString", "coordinates": [[77.8677994, 9.1756933], [77.8676332, 9.1755996]]}, "properties": {"kind": "line", "name": "", "osm_id": 1050199244, "tag": "canal"}}, {"type": "Feature", "geometry": {"type": "LineString", "coordinates": [[77.8693229, 9.1767331], [77.8693602, 9.1767039], [77.8695549, 9.1761645], [77.8696394, 9.1756713], [77.8696892, 9.1751614], [77.8697476, 9.1748019], [77.8696855, 9.1744108], [77.8696824, 9.1742021], [77.8697357, 9.1740921], [77.8698053, 9.1739923], [77.8698849, 9.1738782], [77.8701312, 9.1735652], [77.8701833, 9.1733952], [77.8701295, 9.1728821], [77.8701247, 9.1726373], [77.8701777, 9.172439], [77.8702468, 9.1722478], [77.8703053, 9.1720492], [77.8703841, 9.1717103], [77.8703545, 9.1716364], [77.8703762, 9.1715198]]}, "properties": {"kind": "line", "name": "", "osm_id": 1050199245, "tag": "canal"}}, {"type": "Feature", "geometry": {"type": "LineString", "coordinates": [[77.869185, 9.176841], [77.8693229, 9.1767331]]}, "properties": {"kind": "line", "name": "", "osm_id": 1050199246, "tag": "canal"}}, {"type": "Feature", "geometry": {"type": "LineString", "coordinates": [[77.8691481, 9.1768698], [77.869119, 9.1767997]]}, "properties": {"kind": "line", "name": "", "osm_id": 1050199247, "tag": "canal"}}, {"type": "Feature", "geometry": {"type": "LineString", "coordinates": [[77.869119, 9.1767997], [77.8690709, 9.1766799]]}, "properties": {"kind": "line", "name": "", "osm_id": 1050199248, "tag": "canal"}}, {"type": "Feature", "geometry": {"type": "LineString", "coordinates": [[77.8664657, 9.2241909], [77.866699, 9.2242882], [77.8668902, 9.224368], [77.8674267, 9.2242568], [77.8680972, 9.2238173], [77.8686927, 9.2235631], [77.8700982, 9.223399], [77.8707204, 9.2234837], [77.8714446, 9.223759], [77.8722171, 9.2240185], [77.8731398, 9.2240715], [77.8747169, 9.2244633], [77.8756509, 9.2245053], [77.8771631, 9.2243998], [77.8776298, 9.2243097], [77.878472, 9.2244315], [77.8796254, 9.2243309], [77.881004, 9.2243415], [77.8813044, 9.2241827], [77.8814976, 9.2238226], [77.8818731, 9.2236743], [77.8821949, 9.2238438], [77.8841905, 9.2230072], [77.8848664, 9.2224882], [77.8853385, 9.2222764], [77.8854028, 9.2218422], [77.8862826, 9.220995], [77.8864757, 9.2204867], [77.8865508, 9.2196607], [77.8868298, 9.2193006], [77.8872268, 9.2189299], [77.8874735, 9.2183792], [77.8877578, 9.2178127], [77.8878853, 9.2176994], [77.8880797, 9.2175267], [77.8887932, 9.2177491], [77.8892277, 9.218411], [77.8897534, 9.2193429], [77.8901933, 9.2195336], [77.8909765, 9.220582], [77.8921567, 9.2219375], [77.8935299, 9.2250616], [77.899066, 9.2280692], [77.900611, 9.2280692], [77.9025207, 9.2270526], [77.9042802, 9.2230495], [77.9041247, 9.2223612], [77.9037867, 9.2220911], [77.9038066, 9.2220445], [77.9039423, 9.2217257], [77.904586, 9.2215404], [77.9046879, 9.2209685], [77.9049025, 9.2209103], [77.905042, 9.2220646], [77.9054711, 9.2229966], [77.9083465, 9.2233566], [77.9088614, 9.2237167], [77.909709, 9.2236849], [77.9102267, 9.2231289], [77.9104493, 9.2231686], [77.910452, 9.2233249], [77.9099397, 9.2248763], [77.9098539, 9.2257235], [77.9096607, 9.2261259], [77.9096286, 9.2273332], [77.9099504, 9.2284557], [77.9100792, 9.2307326], [77.9094033, 9.2312727], [77.9091565, 9.2318657], [77.9089741, 9.232554], [77.9087595, 9.2328823], [77.9084591, 9.2328717], [77.9085771, 9.2336765], [77.9098539, 9.2345131], [77.9102937, 9.2352862], [77.9105727, 9.2355404], [77.9109911, 9.236324], [77.9109804, 9.2368641], [77.9111521, 9.2370547], [77.9114846, 9.237097], [77.9116992, 9.2372347], [77.9118709, 9.2383678], [77.9121177, 9.2386537], [77.9125468, 9.2385584], [77.91333, 9.238802], [77.9138235, 9.2387914], [77.9143063, 9.2389714], [77.9149608, 9.2389714], [77.9153792, 9.238982], [77.9154221, 9.2392997], [77.9149501, 9.2395221], [77.9148857, 9.2398715], [77.9149265, 9.240287]]}, "properties": {"kind": "line", "name": "", "osm_id": 1147267468, "tag": "canal"}}, {"type": "Feature", "geometry": {"type": "LineString", "coordinates": [[77.874709, 9.2259209], [77.8750189, 9.2258088], [77.8752265, 9.2257897], [77.8755013, 9.2255993], [77.8755829, 9.225016], [77.8756509, 9.2245053]]}, "properties": {"kind": "line", "name": "", "osm_id": 1147267473, "tag": "canal"}}, {"type": "Feature", "geometry": {"type": "LineString", "coordinates": [[77.8878853, 9.2176994], [77.8890936, 9.2189776], [77.8899948, 9.2198672], [77.8905312, 9.2212015], [77.8905527, 9.2235949], [77.8909604, 9.2258612], [77.8916685, 9.2280427], [77.8923337, 9.2298748], [77.8945009, 9.2300336], [77.8966574, 9.2312832], [77.8970973, 9.2317916], [77.8980414, 9.232141], [77.8991787, 9.2328717], [77.8997795, 9.233253], [77.9001389, 9.2350479], [77.9016785, 9.2354715], [77.9026226, 9.236091], [77.9038296, 9.2367264], [77.9040764, 9.2371235], [77.9041515, 9.237563], [77.9040606, 9.2380548]]}, "properties": {"kind": "line", "name": "", "osm_id": 1147267474, "tag": "canal"}}, {"type": "Feature", "geometry": {"type": "LineString", "coordinates": [[77.8909765, 9.220582], [77.8910248, 9.2208468], [77.8909014, 9.2209791], [77.8905312, 9.2212015]]}, "properties": {"kind": "line", "name": "", "osm_id": 1147267478, "tag": "canal"}}, {"type": "Feature", "geometry": {"type": "LineString", "coordinates": [[77.904586, 9.2215404], [77.9045445, 9.2221665], [77.9051453, 9.2230667], [77.9052526, 9.2233314], [77.9053062, 9.2250152], [77.9055637, 9.2261907], [77.9062826, 9.2270803], [77.9068619, 9.2274086], [77.9070228, 9.2283193], [77.9074627, 9.2283723], [77.9076344, 9.229103], [77.9076022, 9.2299078], [77.9073447, 9.2309139], [77.9076022, 9.2318775], [77.9082245, 9.2321529], [77.9081708, 9.23264], [77.9084591, 9.2328717]]}, "properties": {"kind": "line", "name": "", "osm_id": 1147267481, "tag": "canal"}}], "properties": {"source": "OpenStreetMap via Overpass", "retrieved": "2026-09-18"}}