{"type": "FeatureCollection", "features": [{"type": "Feature", "geometry": {"type": "Point", "coordinates": [77.8659275, 9.1750336]}, "properties": {"kind": "amenity", "group": "Bus stops & stations", "name": "Kovilpatti Town Bus Stand", "osm_id": 1083228335, "osm_type": "node", "osm_tag": "amenity=bus_station"}}, {"type": "Feature", "geometry": {"type": "Point", "coordinates": [77.8566265, 9.184792]}, "properties": {"kind": "amenity", "group": "Food & eating out", "name": "Sri Elakkiya Restaurant", "osm_id": 4543308079, "osm_type": "node", "osm_tag": "amenity=restaurant"}}, {"type": "Feature", "geometry": {"type": "Point", "coordinates": [77.8640416, 9.1908966]}, "properties": {"kind": "amenity", "group": "Fuel stations", "name": "HP", "osm_id": 4543308080, "osm_type": "node", "osm_tag": "amenity=fuel"}}, {"type": "Feature", "geometry": {"type": "Point", "coordinates": [77.8885735, 9.2203812]}, "properties": {"kind": "amenity", "group": "Fuel stations", "name": "Bharat Petroleum", "osm_id": 4543308081, "osm_type": "node", "osm_tag": "amenity=fuel"}}, {"type": "Feature", "geometry": {"type": "Point", "coordinates": [77.8446553, 9.1577685]}, "properties": {"kind": "amenity", "group": "Fuel stations", "name": "HP", "osm_id": 5079388908, "osm_type": "node", "osm_tag": "amenity=fuel"}}, {"type": "Feature", "geometry": {"type": "Point", "coordinates": [77.8618725, 9.1695363]}, "properties": {"kind": "amenity", "group": "Places of worship", "name": "Ganesh Temple", "osm_id": 6315440237, "osm_type": "node", "osm_tag": "amenity=place_of_worship"}}, {"type": "Feature", "geometry": {"type": "Point", "coordinates": [77.8815894, 9.1825061]}, "properties": {"kind": "amenity", "group": "Shops & markets", "name": "Lakshmi Store", "osm_id": 9015953471, "osm_type": "node", "osm_tag": "shop=convenience"}}, {"type": "Feature", "geometry": {"type": "Point", "coordinates": [77.8777753, 9.1864439]}, "properties": {"kind": "amenity", "group": "Fuel stations", "name": "", "osm_id": 10564210360, "osm_type": "node", "osm_tag": "amenity=fuel"}}, {"type": "Feature", "geometry": {"type": "Point", "coordinates": [77.8776975, 9.187045]}, "properties": {"kind": "amenity", "group": "Fuel stations", "name": "", "osm_id": 10593496793, "osm_type": "node", "osm_tag": "amenity=fuel"}}, {"type": "Feature", "geometry": {"type": "Point", "coordinates": [77.877152, 9.185156]}, "properties": {"kind": "amenity", "group": "Places of worship", "name": "", "osm_id": 11342663320, "osm_type": "node", "osm_tag": "amenity=place_of_worship"}}, {"type": "Feature", "geometry": {"type": "Point", "coordinates": [77.8440042, 9.1563111]}, "properties": {"kind": "amenity", "group": "Places of worship", "name": "", "osm_id": 11535344934, "osm_type": "node", "osm_tag": "amenity=place_of_worship"}}, {"type": "Feature", "geometry": {"type": "Point", "coordinates": [77.8717823, 9.1808576]}, "properties": {"kind": "amenity", "group": "Places of worship", "name": "", "osm_id": 11535643415, "osm_type": "node", "osm_tag": "amenity=place_of_worship"}}, {"type": "Feature", "geometry": {"type": "Point", "coordinates": [77.8722217, 9.1801535]}, "properties": {"kind": "amenity", "group": "Places of worship", "name": "", "osm_id": 11535643416, "osm_type": "node", "osm_tag": "amenity=place_of_worship"}}, {"type": "Feature", "geometry": {"type": "Point", "coordinates": [77.9136004, 9.1657858]}, "properties": {"kind": "amenity", "group": "Fuel stations", "name": "Bharat Petroleum", "osm_id": 12044095256, "osm_type": "node", "osm_tag": "amenity=fuel"}}, {"type": "Feature", "geometry": {"type": "Point", "coordinates": [77.8729174, 9.1731714]}, "properties": {"kind": "amenity", "group": "Banks & ATMs", "name": "India Post  ATM", "osm_id": 12044117710, "osm_type": "node", "osm_tag": "amenity=atm"}}, {"type": "Feature", "geometry": {"type": "Point", "coordinates": [77.8729602, 9.1732682]}, "properties": {"kind": "amenity", "group": "Post offices", "name": "General Post Office", "osm_id": 12044128491, "osm_type": "node", "osm_tag": "amenity=post_office"}}, {"type": "Feature", "geometry": {"type": "Point", "coordinates": [77.8865321, 9.1480482]}, "properties": {"kind": "amenity", "group": "Fuel stations", "name": "Indian Oil", "osm_id": 12622178039, "osm_type": "node", "osm_tag": "amenity=fuel"}}, {"type": "Feature", "geometry": {"type": "Point", "coordinates": [77.883539, 9.1579387]}, "properties": {"kind": "amenity", "group": "Fuel stations", "name": "HP", "osm_id": 12622178040, "osm_type": "node", "osm_tag": "amenity=fuel"}}, {"type": "Feature", "geometry": {"type": "Point", "coordinates": [77.8791631, 9.1625173]}, "properties": {"kind": "amenity", "group": "Fuel stations", "name": "Nayara", "osm_id": 12622178041, "osm_type": "node", "osm_tag": "amenity=fuel"}}, {"type": "Feature", "geometry": {"type": "Point", "coordinates": [77.8793127, 9.1628122]}, "properties": {"kind": "amenity", "group": "Banks & ATMs", "name": "", "osm_id": 12622178042, "osm_type": "node", "osm_tag": "amenity=bank"}}, {"type": "Feature", "geometry": {"type": "Point", "coordinates": [77.8764939, 9.1649201]}, "properties": {"kind": "amenity", "group": "Pharmacies", "name": "", "osm_id": 12622178043, "osm_type": "node", "osm_tag": "amenity=pharmacy"}}, {"type": "Feature", "geometry": {"type": "Point", "coordinates": [77.8734013, 9.1684717]}, "properties": {"kind": "amenity", "group": "Banks & ATMs", "name": "HDFC Bank", "osm_id": 12622178044, "osm_type": "node", "osm_tag": "amenity=atm"}}, {"type": "Feature", "geometry": {"type": "Point", "coordinates": [77.8716005, 9.1719263]}, "properties": {"kind": "amenity", "group": "Pharmacies", "name": "MedPlus", "osm_id": 12622178046, "osm_type": "node", "osm_tag": "amenity=pharmacy"}}, {"type": "Feature", "geometry": {"type": "Point", "coordinates": [77.8738058, 9.1794416]}, "properties": {"kind": "amenity", "group": "Places of worship", "name": "", "osm_id": 12622178049, "osm_type": "node", "osm_tag": "amenity=place_of_worship"}}, {"type": "Feature", "geometry": {"type": "Point", "coordinates": [77.8727889, 9.1813974]}, "properties": {"kind": "amenity", "group": "Fuel stations", "name": "HP", "osm_id": 12622178050, "osm_type": "node", "osm_tag": "amenity=fuel"}}, {"type": "Feature", "geometry": {"type": "Point", "coordinates": [77.8733534, 9.1819246]}, "properties": {"kind": "amenity", "group": "Fuel stations", "name": "Indian Oil", "osm_id": 12622178051, "osm_type": "node", "osm_tag": "amenity=fuel"}}, {"type": "Feature", "geometry": {"type": "Point", "coordinates": [77.8738243, 9.1821311]}, "properties": {"kind": "amenity", "group": "Places of worship", "name": "", "osm_id": 12622178053, "osm_type": "node", "osm_tag": "amenity=place_of_worship"}}, {"type": "Feature", "geometry": {"type": "Point", "coordinates": [77.8730261, 9.181576]}, "properties": {"kind": "amenity", "group": "Places of worship", "name": "", "osm_id": 12622178054, "osm_type": "node", "osm_tag": "amenity=place_of_worship"}}, {"type": "Feature", "geometry": {"type": "Point", "coordinates": [77.8731897, 9.1808767]}, "properties": {"kind": "amenity", "group": "Banks & ATMs", "name": "ICICI Bank", "osm_id": 12622178055, "osm_type": "node", "osm_tag": "amenity=bank"}}, {"type": "Feature", "geometry": {"type": "Point", "coordinates": [77.8735059, 9.1797976]}, "properties": {"kind": "amenity", "group": "Pharmacies", "name": "", "osm_id": 12622178056, "osm_type": "node", "osm_tag": "amenity=pharmacy"}}, {"type": "Feature", "geometry": {"type": "Point", "coordinates": [77.8742275, 9.1769268]}, "properties": {"kind": "amenity", "group": "Banks & ATMs", "name": "", "osm_id": 12622178057, "osm_type": "node", "osm_tag": "amenity=bank"}}, {"type": "Feature", "geometry": {"type": "Point", "coordinates": [77.8716028, 9.1729984]}, "properties": {"kind": "amenity", "group": "Police & fire", "name": "", "osm_id": 12622178058, "osm_type": "node", "osm_tag": "amenity=police"}}, {"type": "Feature", "geometry": {"type": "Point", "coordinates": [77.8717762, 9.1713405]}, "properties": {"kind": "amenity", "group": "Banks & ATMs", "name": "State Bank of India", "osm_id": 12622178059, "osm_type": "node", "osm_tag": "amenity=atm"}}, {"type": "Feature", "geometry": {"type": "Point", "coordinates": [77.8724637, 9.1697463]}, "properties": {"kind": "amenity", "group": "Pharmacies", "name": "", "osm_id": 12622178060, "osm_type": "node", "osm_tag": "amenity=pharmacy"}}, {"type": "Feature", "geometry": {"type": "Point", "coordinates": [77.8754777, 9.1658353]}, "properties": {"kind": "amenity", "group": "Banks & ATMs", "name": "", "osm_id": 12622178061, "osm_type": "node", "osm_tag": "amenity=atm"}}, {"type": "Feature", "geometry": {"type": "Point", "coordinates": [77.8692065, 9.1729091]}, "properties": {"kind": "amenity", "group": "Places of worship", "name": "Sri Shenbahavalli Amman Temple", "osm_id": 194359410, "osm_type": "way", "osm_tag": "amenity=place_of_worship"}}, {"type": "Feature", "geometry": {"type": "Point", "coordinates": [77.8528657, 9.1825316]}, "properties": {"kind": "amenity", "group": "Bus stops & stations", "name": "Kovilpatti Mofussil Bus stand", "osm_id": 194359762, "osm_type": "way", "osm_tag": "amenity=bus_station"}}, {"type": "Feature", "geometry": {"type": "Point", "coordinates": [77.8760507, 9.1835029]}, "properties": {"kind": "amenity", "group": "Power infrastructure", "name": "", "osm_id": 309492190, "osm_type": "way", "osm_tag": "power=substation"}}, {"type": "Feature", "geometry": {"type": "Point", "coordinates": [77.8538459, 9.1811007]}, "properties": {"kind": "amenity", "group": "Power infrastructure", "name": "Kovilpatti", "osm_id": 309492238, "osm_type": "way", "osm_tag": "power=substation"}}, {"type": "Feature", "geometry": {"type": "Point", "coordinates": [77.8618893, 9.1725061]}, "properties": {"kind": "amenity", "group": "Parks & sport", "name": "Ramasamydas Memorial Park", "osm_id": 674353144, "osm_type": "way", "osm_tag": "leisure=park"}}, {"type": "Feature", "geometry": {"type": "Point", "coordinates": [77.8623811, 9.1677615]}, "properties": {"kind": "amenity", "group": "Parks & sport", "name": "Venkatesh Nagar Park", "osm_id": 674353145, "osm_type": "way", "osm_tag": "leisure=park"}}, {"type": "Feature", "geometry": {"type": "Point", "coordinates": [77.8658145, 9.174888]}, "properties": {"kind": "amenity", "group": "Bus stops & stations", "name": "Kovilpatti Main Bus Stand", "osm_id": 674353166, "osm_type": "way", "osm_tag": "amenity=bus_station"}}, {"type": "Feature", "geometry": {"type": "Point", "coordinates": [77.8529587, 9.1825997]}, "properties": {"kind": "amenity", "group": "Bus stops & stations", "name": "", "osm_id": 674353167, "osm_type": "way", "osm_tag": "amenity=bus_station"}}, {"type": "Feature", "geometry": {"type": "Point", "coordinates": [77.9222075, 9.1358435]}, "properties": {"kind": "amenity", "group": "Power infrastructure", "name": "", "osm_id": 1144250230, "osm_type": "way", "osm_tag": "power=plant"}}, {"type": "Feature", "geometry": {"type": "Point", "coordinates": [77.8748452, 9.1836012]}, "properties": {"kind": "amenity", "group": "Power infrastructure", "name": "Kovilpatti Traction", "osm_id": 1200811041, "osm_type": "way", "osm_tag": "power=substation"}}, {"type": "Feature", "geometry": {"type": "Point", "coordinates": [77.8597452, 9.1328387]}, "properties": {"kind": "amenity", "group": "Parks & sport", "name": "", "osm_id": 1219668441, "osm_type": "way", "osm_tag": "leisure=sports_centre"}}, {"type": "Feature", "geometry": {"type": "Point", "coordinates": [77.9181344, 9.1456873]}, "properties": {"kind": "amenity", "group": "Power infrastructure", "name": "", "osm_id": 1432129285, "osm_type": "way", "osm_tag": "power=plant"}}, {"type": "Feature", "geometry": {"type": "Point", "coordinates": [77.9184414, 9.1488716]}, "properties": {"kind": "amenity", "group": "Power infrastructure", "name": "", "osm_id": 1432129286, "osm_type": "way", "osm_tag": "power=plant"}}], "properties": {"source": "OpenStreetMap via Overpass", "retrieved": "2026-09-24"}}